{
  "type": "FeatureCollection",
  "features": [
    {
      "type": "Feature",
      "properties": {
        "name": "Bến cảng Cải Trạp 2",
        "khu_vuc": "Khu bến Lạch Huyện",
        "phan_loai": "Bến cảng quy hoạch đến năm 2030",
        "nguon": "05. QH tong the Lach Huyen.pdf - QD 756/QD-BXD, Cuc Hang hai Viet Nam, 02/2025",
        "phuong_phap": "Da dich chuyen toan bo khu (tinh + huong khong doi) de khop diem neo moi: Cang Container Quoc te Tan Cang Hai Phong (HICT), toa do cong bo N20 48', E106 54' (lam tron den phut, nguon baohaiquanvietnam.vn). CANH BAO: chi sua duoc vi tri offset, CHUA xac dinh duoc goc xoay/ty le that cua ban ve nay (thieu diem moc thu 2 de kiem chung, khac voi Song Cam/Pha Rung da co 2 diem). Do chinh xac goc xoay/ty le van la THAP.",
        "do_chinh_xac": "TRUNG BINH (vi tri) / THAP (goc xoay) - da dich chuyen theo 1 diem neo xac thuc (HICT), nhung chua xac dinh duoc goc xoay that cua ban ve."
      },
      "geometry": {
        "type": "Point",
        "coordinates": [
          106.89110609325422,
          20.807658655131313
        ]
      }
    },
    {
      "type": "Feature",
      "properties": {
        "name": "Bến cảng Cải Trạp 1",
        "khu_vuc": "Khu bến Lạch Huyện",
        "phan_loai": "Bến cảng quy hoạch đến năm 2030",
        "nguon": "05. QH tong the Lach Huyen.pdf - QD 756/QD-BXD, Cuc Hang hai Viet Nam, 02/2025",
        "phuong_phap": "Da dich chuyen toan bo khu (tinh + huong khong doi) de khop diem neo moi: Cang Container Quoc te Tan Cang Hai Phong (HICT), toa do cong bo N20 48', E106 54' (lam tron den phut, nguon baohaiquanvietnam.vn). CANH BAO: chi sua duoc vi tri offset, CHUA xac dinh duoc goc xoay/ty le that cua ban ve nay (thieu diem moc thu 2 de kiem chung, khac voi Song Cam/Pha Rung da co 2 diem). Do chinh xac goc xoay/ty le van la THAP.",
        "do_chinh_xac": "TRUNG BINH (vi tri) / THAP (goc xoay) - da dich chuyen theo 1 diem neo xac thuc (HICT), nhung chua xac dinh duoc goc xoay that cua ban ve."
      },
      "geometry": {
        "type": "Point",
        "coordinates": [
          106.89324721895228,
          20.806325366991043
        ]
      }
    },
    {
      "type": "Feature",
      "properties": {
        "name": "Bến cảng Sun Group",
        "khu_vuc": "Khu bến Lạch Huyện",
        "phan_loai": "Bến cảng quy hoạch đến năm 2030",
        "nguon": "05. QH tong the Lach Huyen.pdf - QD 756/QD-BXD, Cuc Hang hai Viet Nam, 02/2025",
        "phuong_phap": "Da dich chuyen toan bo khu (tinh + huong khong doi) de khop diem neo moi: Cang Container Quoc te Tan Cang Hai Phong (HICT), toa do cong bo N20 48', E106 54' (lam tron den phut, nguon baohaiquanvietnam.vn). CANH BAO: chi sua duoc vi tri offset, CHUA xac dinh duoc goc xoay/ty le that cua ban ve nay (thieu diem moc thu 2 de kiem chung, khac voi Song Cam/Pha Rung da co 2 diem). Do chinh xac goc xoay/ty le van la THAP.",
        "do_chinh_xac": "TRUNG BINH (vi tri) / THAP (goc xoay) - da dich chuyen theo 1 diem neo xac thuc (HICT), nhung chua xac dinh duoc goc xoay that cua ban ve."
      },
      "geometry": {
        "type": "Point",
        "coordinates": [
          106.89818827825549,
          20.804278924729235
        ]
      }
    },
    {
      "type": "Feature",
      "properties": {
        "name": "Bến cảng Deep C3",
        "khu_vuc": "Khu bến Lạch Huyện",
        "phan_loai": "Bến cảng hiện hữu",
        "nguon": "05. QH tong the Lach Huyen.pdf - QD 756/QD-BXD, Cuc Hang hai Viet Nam, 02/2025",
        "phuong_phap": "Da dich chuyen toan bo khu (tinh + huong khong doi) de khop diem neo moi: Cang Container Quoc te Tan Cang Hai Phong (HICT), toa do cong bo N20 48', E106 54' (lam tron den phut, nguon baohaiquanvietnam.vn). CANH BAO: chi sua duoc vi tri offset, CHUA xac dinh duoc goc xoay/ty le that cua ban ve nay (thieu diem moc thu 2 de kiem chung, khac voi Song Cam/Pha Rung da co 2 diem). Do chinh xac goc xoay/ty le van la THAP.",
        "do_chinh_xac": "TRUNG BINH (vi tri) / THAP (goc xoay) - da dich chuyen theo 1 diem neo xac thuc (HICT), nhung chua xac dinh duoc goc xoay that cua ban ve."
      },
      "geometry": {
        "type": "Point",
        "coordinates": [
          106.89851768220903,
          20.802170469065555
        ]
      }
    },
    {
      "type": "Feature",
      "properties": {
        "name": "Bến cảng Container Quốc tế Tân Cảng Hải Phòng",
        "khu_vuc": "Khu bến Lạch Huyện",
        "phan_loai": "Bến cảng hiện hữu",
        "nguon": "05. QH tong the Lach Huyen.pdf - QD 756/QD-BXD, Cuc Hang hai Viet Nam, 02/2025",
        "phuong_phap": "Da dich chuyen toan bo khu (tinh + huong khong doi) de khop diem neo moi: Cang Container Quoc te Tan Cang Hai Phong (HICT), toa do cong bo N20 48', E106 54' (lam tron den phut, nguon baohaiquanvietnam.vn). CANH BAO: chi sua duoc vi tri offset, CHUA xac dinh duoc goc xoay/ty le that cua ban ve nay (thieu diem moc thu 2 de kiem chung, khac voi Song Cam/Pha Rung da co 2 diem). Do chinh xac goc xoay/ty le van la THAP.",
        "do_chinh_xac": "TRUNG BINH (vi tri) / THAP (goc xoay) - da dich chuyen theo 1 diem neo xac thuc (HICT), nhung chua xac dinh duoc goc xoay that cua ban ve."
      },
      "geometry": {
        "type": "Point",
        "coordinates": [
          106.9,
          20.8
        ]
      }
    },
    {
      "type": "Feature",
      "properties": {
        "name": "Bến cảng Container Cảng Hải Phòng",
        "khu_vuc": "Khu bến Lạch Huyện",
        "phan_loai": "Bến cảng hiện hữu",
        "nguon": "05. QH tong the Lach Huyen.pdf - QD 756/QD-BXD, Cuc Hang hai Viet Nam, 02/2025",
        "phuong_phap": "Da dich chuyen toan bo khu (tinh + huong khong doi) de khop diem neo moi: Cang Container Quoc te Tan Cang Hai Phong (HICT), toa do cong bo N20 48', E106 54' (lam tron den phut, nguon baohaiquanvietnam.vn). CANH BAO: chi sua duoc vi tri offset, CHUA xac dinh duoc goc xoay/ty le that cua ban ve nay (thieu diem moc thu 2 de kiem chung, khac voi Song Cam/Pha Rung da co 2 diem). Do chinh xac goc xoay/ty le van la THAP.",
        "do_chinh_xac": "TRUNG BINH (vi tri) / THAP (goc xoay) - da dich chuyen theo 1 diem neo xac thuc (HICT), nhung chua xac dinh duoc goc xoay that cua ban ve."
      },
      "geometry": {
        "type": "Point",
        "coordinates": [
          106.90115291383742,
          20.799069798971907
        ]
      }
    },
    {
      "type": "Feature",
      "properties": {
        "name": "Bến cảng Container HATECO",
        "khu_vuc": "Khu bến Lạch Huyện",
        "phan_loai": "Bến cảng quy hoạch đến năm 2030",
        "nguon": "05. QH tong the Lach Huyen.pdf - QD 756/QD-BXD, Cuc Hang hai Viet Nam, 02/2025",
        "phuong_phap": "Da dich chuyen toan bo khu (tinh + huong khong doi) de khop diem neo moi: Cang Container Quoc te Tan Cang Hai Phong (HICT), toa do cong bo N20 48', E106 54' (lam tron den phut, nguon baohaiquanvietnam.vn). CANH BAO: chi sua duoc vi tri offset, CHUA xac dinh duoc goc xoay/ty le that cua ban ve nay (thieu diem moc thu 2 de kiem chung, khac voi Song Cam/Pha Rung da co 2 diem). Do chinh xac goc xoay/ty le van la THAP.",
        "do_chinh_xac": "TRUNG BINH (vi tri) / THAP (goc xoay) - da dich chuyen theo 1 diem neo xac thuc (HICT), nhung chua xac dinh duoc goc xoay that cua ban ve."
      },
      "geometry": {
        "type": "Point",
        "coordinates": [
          106.90197642372128,
          20.796589262896987
        ]
      }
    },
    {
      "type": "Feature",
      "properties": {
        "name": "Bến cảng Container Tân Cảng Sài Gòn",
        "khu_vuc": "Khu bến Lạch Huyện",
        "phan_loai": "Bến cảng quy hoạch đến năm 2030",
        "nguon": "05. QH tong the Lach Huyen.pdf - QD 756/QD-BXD, Cuc Hang hai Viet Nam, 02/2025",
        "phuong_phap": "Da dich chuyen toan bo khu (tinh + huong khong doi) de khop diem neo moi: Cang Container Quoc te Tan Cang Hai Phong (HICT), toa do cong bo N20 48', E106 54' (lam tron den phut, nguon baohaiquanvietnam.vn). CANH BAO: chi sua duoc vi tri offset, CHUA xac dinh duoc goc xoay/ty le that cua ban ve nay (thieu diem moc thu 2 de kiem chung, khac voi Song Cam/Pha Rung da co 2 diem). Do chinh xac goc xoay/ty le van la THAP.",
        "do_chinh_xac": "TRUNG BINH (vi tri) / THAP (goc xoay) - da dich chuyen theo 1 diem neo xac thuc (HICT), nhung chua xac dinh duoc goc xoay that cua ban ve."
      },
      "geometry": {
        "type": "Point",
        "coordinates": [
          106.90477635732644,
          20.795659061868893
        ]
      }
    },
    {
      "type": "Feature",
      "properties": {
        "name": "Ga đường sắt Lạch Huyện",
        "khu_vuc": "Khu bến Lạch Huyện",
        "phan_loai": "Hạ tầng liên quan (ga đường sắt)",
        "nguon": "05. QH tong the Lach Huyen.pdf - QD 756/QD-BXD, Cuc Hang hai Viet Nam, 02/2025",
        "phuong_phap": "Da dich chuyen toan bo khu (tinh + huong khong doi) de khop diem neo moi: Cang Container Quoc te Tan Cang Hai Phong (HICT), toa do cong bo N20 48', E106 54' (lam tron den phut, nguon baohaiquanvietnam.vn). CANH BAO: chi sua duoc vi tri offset, CHUA xac dinh duoc goc xoay/ty le that cua ban ve nay (thieu diem moc thu 2 de kiem chung, khac voi Song Cam/Pha Rung da co 2 diem). Do chinh xac goc xoay/ty le van la THAP.",
        "do_chinh_xac": "TRUNG BINH (vi tri) / THAP (goc xoay) - da dich chuyen theo 1 diem neo xac thuc (HICT), nhung chua xac dinh duoc goc xoay that cua ban ve."
      },
      "geometry": {
        "type": "Point",
        "coordinates": [
          106.90428225139613,
          20.794108726822067
        ]
      }
    },
    {
      "type": "Feature",
      "properties": {
        "name": "Bến cảng Container số 9-10",
        "khu_vuc": "Khu bến Lạch Huyện",
        "phan_loai": "Bến cảng quy hoạch đến năm 2030",
        "nguon": "05. QH tong the Lach Huyen.pdf - QD 756/QD-BXD, Cuc Hang hai Viet Nam, 02/2025",
        "phuong_phap": "Da dich chuyen toan bo khu (tinh + huong khong doi) de khop diem neo moi: Cang Container Quoc te Tan Cang Hai Phong (HICT), toa do cong bo N20 48', E106 54' (lam tron den phut, nguon baohaiquanvietnam.vn). CANH BAO: chi sua duoc vi tri offset, CHUA xac dinh duoc goc xoay/ty le that cua ban ve nay (thieu diem moc thu 2 de kiem chung, khac voi Song Cam/Pha Rung da co 2 diem). Do chinh xac goc xoay/ty le van la THAP.",
        "do_chinh_xac": "TRUNG BINH (vi tri) / THAP (goc xoay) - da dich chuyen theo 1 diem neo xac thuc (HICT), nhung chua xac dinh duoc goc xoay that cua ban ve."
      },
      "geometry": {
        "type": "Point",
        "coordinates": [
          106.90988211860643,
          20.792868458784607
        ]
      }
    },
    {
      "type": "Feature",
      "properties": {
        "name": "Bến cảng Container số 11-12",
        "khu_vuc": "Khu bến Lạch Huyện",
        "phan_loai": "Bến cảng quy hoạch tầm nhìn đến năm 2050",
        "nguon": "05. QH tong the Lach Huyen.pdf - QD 756/QD-BXD, Cuc Hang hai Viet Nam, 02/2025",
        "phuong_phap": "Da dich chuyen toan bo khu (tinh + huong khong doi) de khop diem neo moi: Cang Container Quoc te Tan Cang Hai Phong (HICT), toa do cong bo N20 48', E106 54' (lam tron den phut, nguon baohaiquanvietnam.vn). CANH BAO: chi sua duoc vi tri offset, CHUA xac dinh duoc goc xoay/ty le that cua ban ve nay (thieu diem moc thu 2 de kiem chung, khac voi Song Cam/Pha Rung da co 2 diem). Do chinh xac goc xoay/ty le van la THAP.",
        "do_chinh_xac": "TRUNG BINH (vi tri) / THAP (goc xoay) - da dich chuyen theo 1 diem neo xac thuc (HICT), nhung chua xac dinh duoc goc xoay that cua ban ve."
      },
      "geometry": {
        "type": "Point",
        "coordinates": [
          106.9118585423277,
          20.79100805672842
        ]
      }
    },
    {
      "type": "Feature",
      "properties": {
        "name": "Bến cảng Container số 13-14",
        "khu_vuc": "Khu bến Lạch Huyện",
        "phan_loai": "Bến cảng quy hoạch tầm nhìn đến năm 2050",
        "nguon": "05. QH tong the Lach Huyen.pdf - QD 756/QD-BXD, Cuc Hang hai Viet Nam, 02/2025",
        "phuong_phap": "Da dich chuyen toan bo khu (tinh + huong khong doi) de khop diem neo moi: Cang Container Quoc te Tan Cang Hai Phong (HICT), toa do cong bo N20 48', E106 54' (lam tron den phut, nguon baohaiquanvietnam.vn). CANH BAO: chi sua duoc vi tri offset, CHUA xac dinh duoc goc xoay/ty le that cua ban ve nay (thieu diem moc thu 2 de kiem chung, khac voi Song Cam/Pha Rung da co 2 diem). Do chinh xac goc xoay/ty le van la THAP.",
        "do_chinh_xac": "TRUNG BINH (vi tri) / THAP (goc xoay) - da dich chuyen theo 1 diem neo xac thuc (HICT), nhung chua xac dinh duoc goc xoay that cua ban ve."
      },
      "geometry": {
        "type": "Point",
        "coordinates": [
          106.91284675418835,
          20.78790738663477
        ]
      }
    },
    {
      "type": "Feature",
      "properties": {
        "name": "Bến cảng Container số 15-16",
        "khu_vuc": "Khu bến Lạch Huyện",
        "phan_loai": "Bến cảng quy hoạch tầm nhìn đến năm 2050",
        "nguon": "05. QH tong the Lach Huyen.pdf - QD 756/QD-BXD, Cuc Hang hai Viet Nam, 02/2025",
        "phuong_phap": "Da dich chuyen toan bo khu (tinh + huong khong doi) de khop diem neo moi: Cang Container Quoc te Tan Cang Hai Phong (HICT), toa do cong bo N20 48', E106 54' (lam tron den phut, nguon baohaiquanvietnam.vn). CANH BAO: chi sua duoc vi tri offset, CHUA xac dinh duoc goc xoay/ty le that cua ban ve nay (thieu diem moc thu 2 de kiem chung, khac voi Song Cam/Pha Rung da co 2 diem). Do chinh xac goc xoay/ty le van la THAP.",
        "do_chinh_xac": "TRUNG BINH (vi tri) / THAP (goc xoay) - da dich chuyen theo 1 diem neo xac thuc (HICT), nhung chua xac dinh duoc goc xoay that cua ban ve."
      },
      "geometry": {
        "type": "Point",
        "coordinates": [
          106.913834966049,
          20.785116783550485
        ]
      }
    },
    {
      "type": "Feature",
      "properties": {
        "name": "Bến cảng Container số 17-18",
        "khu_vuc": "Khu bến Lạch Huyện",
        "phan_loai": "Bến cảng quy hoạch tầm nhìn đến năm 2050",
        "nguon": "05. QH tong the Lach Huyen.pdf - QD 756/QD-BXD, Cuc Hang hai Viet Nam, 02/2025",
        "phuong_phap": "Da dich chuyen toan bo khu (tinh + huong khong doi) de khop diem neo moi: Cang Container Quoc te Tan Cang Hai Phong (HICT), toa do cong bo N20 48', E106 54' (lam tron den phut, nguon baohaiquanvietnam.vn). CANH BAO: chi sua duoc vi tri offset, CHUA xac dinh duoc goc xoay/ty le that cua ban ve nay (thieu diem moc thu 2 de kiem chung, khac voi Song Cam/Pha Rung da co 2 diem). Do chinh xac goc xoay/ty le van la THAP.",
        "do_chinh_xac": "TRUNG BINH (vi tri) / THAP (goc xoay) - da dich chuyen theo 1 diem neo xac thuc (HICT), nhung chua xac dinh duoc goc xoay that cua ban ve."
      },
      "geometry": {
        "type": "Point",
        "coordinates": [
          106.91482317790964,
          20.782326180466203
        ]
      }
    },
    {
      "type": "Feature",
      "properties": {
        "name": "Bến cảng Container số 19-20",
        "khu_vuc": "Khu bến Lạch Huyện",
        "phan_loai": "Bến cảng quy hoạch tầm nhìn đến năm 2050",
        "nguon": "05. QH tong the Lach Huyen.pdf - QD 756/QD-BXD, Cuc Hang hai Viet Nam, 02/2025",
        "phuong_phap": "Da dich chuyen toan bo khu (tinh + huong khong doi) de khop diem neo moi: Cang Container Quoc te Tan Cang Hai Phong (HICT), toa do cong bo N20 48', E106 54' (lam tron den phut, nguon baohaiquanvietnam.vn). CANH BAO: chi sua duoc vi tri offset, CHUA xac dinh duoc goc xoay/ty le that cua ban ve nay (thieu diem moc thu 2 de kiem chung, khac voi Song Cam/Pha Rung da co 2 diem). Do chinh xac goc xoay/ty le van la THAP.",
        "do_chinh_xac": "TRUNG BINH (vi tri) / THAP (goc xoay) - da dich chuyen theo 1 diem neo xac thuc (HICT), nhung chua xac dinh duoc goc xoay that cua ban ve."
      },
      "geometry": {
        "type": "Point",
        "coordinates": [
          106.91581138977028,
          20.779535577381917
        ]
      }
    },
    {
      "type": "Feature",
      "properties": {
        "name": "Bến cảng Lỏng khí số 21-22",
        "khu_vuc": "Khu bến Lạch Huyện",
        "phan_loai": "Bến cảng quy hoạch đến năm 2030",
        "nguon": "05. QH tong the Lach Huyen.pdf - QD 756/QD-BXD, Cuc Hang hai Viet Nam, 02/2025",
        "phuong_phap": "Da dich chuyen toan bo khu (tinh + huong khong doi) de khop diem neo moi: Cang Container Quoc te Tan Cang Hai Phong (HICT), toa do cong bo N20 48', E106 54' (lam tron den phut, nguon baohaiquanvietnam.vn). CANH BAO: chi sua duoc vi tri offset, CHUA xac dinh duoc goc xoay/ty le that cua ban ve nay (thieu diem moc thu 2 de kiem chung, khac voi Song Cam/Pha Rung da co 2 diem). Do chinh xac goc xoay/ty le van la THAP.",
        "do_chinh_xac": "TRUNG BINH (vi tri) / THAP (goc xoay) - da dich chuyen theo 1 diem neo xac thuc (HICT), nhung chua xac dinh duoc goc xoay that cua ban ve."
      },
      "geometry": {
        "type": "Point",
        "coordinates": [
          106.9163054957006,
          20.778140275839778
        ]
      }
    },
    {
      "type": "Feature",
      "properties": {
        "name": "Khu logistics sau cầu cảng",
        "khu_vuc": "Khu bến Lạch Huyện",
        "phan_loai": "Bến cảng phát triển có điều kiện",
        "nguon": "05. QH tong the Lach Huyen.pdf - QD 756/QD-BXD, Cuc Hang hai Viet Nam, 02/2025",
        "phuong_phap": "Da dich chuyen toan bo khu (tinh + huong khong doi) de khop diem neo moi: Cang Container Quoc te Tan Cang Hai Phong (HICT), toa do cong bo N20 48', E106 54' (lam tron den phut, nguon baohaiquanvietnam.vn). CANH BAO: chi sua duoc vi tri offset, CHUA xac dinh duoc goc xoay/ty le that cua ban ve nay (thieu diem moc thu 2 de kiem chung, khac voi Song Cam/Pha Rung da co 2 diem). Do chinh xac goc xoay/ty le van la THAP.",
        "do_chinh_xac": "TRUNG BINH (vi tri) / THAP (goc xoay) - da dich chuyen theo 1 diem neo xac thuc (HICT), nhung chua xac dinh duoc goc xoay that cua ban ve."
      },
      "geometry": {
        "type": "Point",
        "coordinates": [
          106.91482317790964,
          20.776124840278907
        ]
      }
    },
    {
      "type": "Feature",
      "properties": {
        "name": "Cảng Xăng Dầu 19-9",
        "khu_vuc": "Khu bến Đình Vũ",
        "phan_loai": "Bến cảng hiện hữu",
        "nguon": "09 QH tong the Dinh Vu-Model.pdf - QD 756/QD-BXD, Cuc Hang hai Viet Nam, 02/2025",
        "phuong_phap": "Da dich chuyen toan bo khu (tinh + huong khong doi) de khop diem neo moi: Cang Nam Hai Dinh Vu, toa do cong bo N20 49', E106 47' (lam tron den phut, nguon vpa.org.vn). Sai lech ban dau ~1.3km, gan voi sai so lam tron cua nguon (+-930m) nen muc do cai thien it hon so voi Lach Huyen. CANH BAO: chua xac dinh duoc goc xoay/ty le that cua ban ve nay (thieu diem moc thu 2).",
        "do_chinh_xac": "TRUNG BINH (vi tri, da xac thuc gan dung qua Cang Nam Hai Dinh Vu) / THAP (goc xoay chi tiet)."
      },
      "geometry": {
        "type": "Point",
        "coordinates": [
          106.78233006358919,
          20.83196360486656
        ]
      }
    },
    {
      "type": "Feature",
      "properties": {
        "name": "Cảng PTSC Đình Vũ",
        "khu_vuc": "Khu bến Đình Vũ",
        "phan_loai": "Bến cảng hiện hữu",
        "nguon": "09 QH tong the Dinh Vu-Model.pdf - QD 756/QD-BXD, Cuc Hang hai Viet Nam, 02/2025",
        "phuong_phap": "Da dich chuyen toan bo khu (tinh + huong khong doi) de khop diem neo moi: Cang Nam Hai Dinh Vu, toa do cong bo N20 49', E106 47' (lam tron den phut, nguon vpa.org.vn). Sai lech ban dau ~1.3km, gan voi sai so lam tron cua nguon (+-930m) nen muc do cai thien it hon so voi Lach Huyen. CANH BAO: chua xac dinh duoc goc xoay/ty le that cua ban ve nay (thieu diem moc thu 2).",
        "do_chinh_xac": "TRUNG BINH (vi tri, da xac thuc gan dung qua Cang Nam Hai Dinh Vu) / THAP (goc xoay chi tiet)."
      },
      "geometry": {
        "type": "Point",
        "coordinates": [
          106.78473791097515,
          20.82875313635547
        ]
      }
    },
    {
      "type": "Feature",
      "properties": {
        "name": "Cảng Đình Vũ",
        "khu_vuc": "Khu bến Đình Vũ",
        "phan_loai": "Bến cảng hiện hữu",
        "nguon": "09 QH tong the Dinh Vu-Model.pdf - QD 756/QD-BXD, Cuc Hang hai Viet Nam, 02/2025",
        "phuong_phap": "Da dich chuyen toan bo khu (tinh + huong khong doi) de khop diem neo moi: Cang Nam Hai Dinh Vu, toa do cong bo N20 49', E106 47' (lam tron den phut, nguon vpa.org.vn). Sai lech ban dau ~1.3km, gan voi sai so lam tron cua nguon (+-930m) nen muc do cai thien it hon so voi Lach Huyen. CANH BAO: chua xac dinh duoc goc xoay/ty le that cua ban ve nay (thieu diem moc thu 2).",
        "do_chinh_xac": "TRUNG BINH (vi tri, da xac thuc gan dung qua Cang Nam Hai Dinh Vu) / THAP (goc xoay chi tiet)."
      },
      "geometry": {
        "type": "Point",
        "coordinates": [
          106.78674445046346,
          20.82724232764437
        ]
      }
    },
    {
      "type": "Feature",
      "properties": {
        "name": "Cảng Tân Vũ",
        "khu_vuc": "Khu bến Đình Vũ",
        "phan_loai": "Bến cảng hiện hữu",
        "nguon": "09 QH tong the Dinh Vu-Model.pdf - QD 756/QD-BXD, Cuc Hang hai Viet Nam, 02/2025",
        "phuong_phap": "Da dich chuyen toan bo khu (tinh + huong khong doi) de khop diem neo moi: Cang Nam Hai Dinh Vu, toa do cong bo N20 49', E106 47' (lam tron den phut, nguon vpa.org.vn). Sai lech ban dau ~1.3km, gan voi sai so lam tron cua nguon (+-930m) nen muc do cai thien it hon so voi Lach Huyen. CANH BAO: chua xac dinh duoc goc xoay/ty le that cua ban ve nay (thieu diem moc thu 2).",
        "do_chinh_xac": "TRUNG BINH (vi tri, da xac thuc gan dung qua Cang Nam Hai Dinh Vu) / THAP (goc xoay chi tiet)."
      },
      "geometry": {
        "type": "Point",
        "coordinates": [
          106.7877477202076,
          20.82554266784438
        ]
      }
    },
    {
      "type": "Feature",
      "properties": {
        "name": "Cảng VIMC Đình Vũ",
        "khu_vuc": "Khu bến Đình Vũ",
        "phan_loai": "Bến cảng hiện hữu",
        "nguon": "09 QH tong the Dinh Vu-Model.pdf - QD 756/QD-BXD, Cuc Hang hai Viet Nam, 02/2025",
        "phuong_phap": "Da dich chuyen toan bo khu (tinh + huong khong doi) de khop diem neo moi: Cang Nam Hai Dinh Vu, toa do cong bo N20 49', E106 47' (lam tron den phut, nguon vpa.org.vn). Sai lech ban dau ~1.3km, gan voi sai so lam tron cua nguon (+-930m) nen muc do cai thien it hon so voi Lach Huyen. CANH BAO: chua xac dinh duoc goc xoay/ty le that cua ban ve nay (thieu diem moc thu 2).",
        "do_chinh_xac": "TRUNG BINH (vi tri, da xac thuc gan dung qua Cang Nam Hai Dinh Vu) / THAP (goc xoay chi tiet)."
      },
      "geometry": {
        "type": "Point",
        "coordinates": [
          106.78533987282164,
          20.821010241711083
        ]
      }
    },
    {
      "type": "Feature",
      "properties": {
        "name": "Ga đường sắt (QH)",
        "khu_vuc": "Khu bến Đình Vũ",
        "phan_loai": "Hạ tầng liên quan (ga đường sắt)",
        "nguon": "09 QH tong the Dinh Vu-Model.pdf - QD 756/QD-BXD, Cuc Hang hai Viet Nam, 02/2025",
        "phuong_phap": "Da dich chuyen toan bo khu (tinh + huong khong doi) de khop diem neo moi: Cang Nam Hai Dinh Vu, toa do cong bo N20 49', E106 47' (lam tron den phut, nguon vpa.org.vn). Sai lech ban dau ~1.3km, gan voi sai so lam tron cua nguon (+-930m) nen muc do cai thien it hon so voi Lach Huyen. CANH BAO: chua xac dinh duoc goc xoay/ty le that cua ban ve nay (thieu diem moc thu 2).",
        "do_chinh_xac": "TRUNG BINH (vi tri, da xac thuc gan dung qua Cang Nam Hai Dinh Vu) / THAP (goc xoay chi tiet)."
      },
      "geometry": {
        "type": "Point",
        "coordinates": [
          106.78092548594736,
          20.821576794977744
        ]
      }
    },
    {
      "type": "Feature",
      "properties": {
        "name": "Cảng Nam Hải Đình Vũ",
        "khu_vuc": "Khu bến Đình Vũ",
        "phan_loai": "Bến cảng hiện hữu",
        "nguon": "09 QH tong the Dinh Vu-Model.pdf - QD 756/QD-BXD, Cuc Hang hai Viet Nam, 02/2025",
        "phuong_phap": "Da dich chuyen toan bo khu (tinh + huong khong doi) de khop diem neo moi: Cang Nam Hai Dinh Vu, toa do cong bo N20 49', E106 47' (lam tron den phut, nguon vpa.org.vn). Sai lech ban dau ~1.3km, gan voi sai so lam tron cua nguon (+-930m) nen muc do cai thien it hon so voi Lach Huyen. CANH BAO: chua xac dinh duoc goc xoay/ty le that cua ban ve nay (thieu diem moc thu 2).",
        "do_chinh_xac": "TRUNG BINH (vi tri, da xac thuc gan dung qua Cang Nam Hai Dinh Vu) / THAP (goc xoay chi tiet)."
      },
      "geometry": {
        "type": "Point",
        "coordinates": [
          106.78333333333333,
          20.816666666666666
        ]
      }
    },
    {
      "type": "Feature",
      "properties": {
        "name": "Cảng Container VIP Greenport",
        "khu_vuc": "Khu bến Đình Vũ",
        "phan_loai": "Bến cảng hiện hữu",
        "nguon": "09 QH tong the Dinh Vu-Model.pdf - QD 756/QD-BXD, Cuc Hang hai Viet Nam, 02/2025",
        "phuong_phap": "Da dich chuyen toan bo khu (tinh + huong khong doi) de khop diem neo moi: Cang Nam Hai Dinh Vu, toa do cong bo N20 49', E106 47' (lam tron den phut, nguon vpa.org.vn). Sai lech ban dau ~1.3km, gan voi sai so lam tron cua nguon (+-930m) nen muc do cai thien it hon so voi Lach Huyen. CANH BAO: chua xac dinh duoc goc xoay/ty le that cua ban ve nay (thieu diem moc thu 2).",
        "do_chinh_xac": "TRUNG BINH (vi tri, da xac thuc gan dung qua Cang Nam Hai Dinh Vu) / THAP (goc xoay chi tiet)."
      },
      "geometry": {
        "type": "Point",
        "coordinates": [
          106.78092548594736,
          20.81440045360002
        ]
      }
    },
    {
      "type": "Feature",
      "properties": {
        "name": "Cảng chuyên dùng FGG",
        "khu_vuc": "Khu bến Đình Vũ",
        "phan_loai": "Bến cảng hiện hữu",
        "nguon": "09 QH tong the Dinh Vu-Model.pdf - QD 756/QD-BXD, Cuc Hang hai Viet Nam, 02/2025",
        "phuong_phap": "Da dich chuyen toan bo khu (tinh + huong khong doi) de khop diem neo moi: Cang Nam Hai Dinh Vu, toa do cong bo N20 49', E106 47' (lam tron den phut, nguon vpa.org.vn). Sai lech ban dau ~1.3km, gan voi sai so lam tron cua nguon (+-930m) nen muc do cai thien it hon so voi Lach Huyen. CANH BAO: chua xac dinh duoc goc xoay/ty le that cua ban ve nay (thieu diem moc thu 2).",
        "do_chinh_xac": "TRUNG BINH (vi tri, da xac thuc gan dung qua Cang Nam Hai Dinh Vu) / THAP (goc xoay chi tiet)."
      },
      "geometry": {
        "type": "Point",
        "coordinates": [
          106.78253071753801,
          20.814022751422243
        ]
      }
    },
    {
      "type": "Feature",
      "properties": {
        "name": "Cảng Euro Đình Vũ",
        "khu_vuc": "Khu bến Đình Vũ",
        "phan_loai": "Bến cảng hiện hữu",
        "nguon": "09 QH tong the Dinh Vu-Model.pdf - QD 756/QD-BXD, Cuc Hang hai Viet Nam, 02/2025",
        "phuong_phap": "Da dich chuyen toan bo khu (tinh + huong khong doi) de khop diem neo moi: Cang Nam Hai Dinh Vu, toa do cong bo N20 49', E106 47' (lam tron den phut, nguon vpa.org.vn). Sai lech ban dau ~1.3km, gan voi sai so lam tron cua nguon (+-930m) nen muc do cai thien it hon so voi Lach Huyen. CANH BAO: chua xac dinh duoc goc xoay/ty le that cua ban ve nay (thieu diem moc thu 2).",
        "do_chinh_xac": "TRUNG BINH (vi tri, da xac thuc gan dung qua Cang Nam Hai Dinh Vu) / THAP (goc xoay chi tiet)."
      },
      "geometry": {
        "type": "Point",
        "coordinates": [
          106.79497126236551,
          20.81968828408887
        ]
      }
    },
    {
      "type": "Feature",
      "properties": {
        "name": "Cảng MPC Port",
        "khu_vuc": "Khu bến Đình Vũ",
        "phan_loai": "Bến cảng quy hoạch đến năm 2030",
        "nguon": "09 QH tong the Dinh Vu-Model.pdf - QD 756/QD-BXD, Cuc Hang hai Viet Nam, 02/2025",
        "phuong_phap": "Da dich chuyen toan bo khu (tinh + huong khong doi) de khop diem neo moi: Cang Nam Hai Dinh Vu, toa do cong bo N20 49', E106 47' (lam tron den phut, nguon vpa.org.vn). Sai lech ban dau ~1.3km, gan voi sai so lam tron cua nguon (+-930m) nen muc do cai thien it hon so voi Lach Huyen. CANH BAO: chua xac dinh duoc goc xoay/ty le that cua ban ve nay (thieu diem moc thu 2).",
        "do_chinh_xac": "TRUNG BINH (vi tri, da xac thuc gan dung qua Cang Nam Hai Dinh Vu) / THAP (goc xoay chi tiet)."
      },
      "geometry": {
        "type": "Point",
        "coordinates": [
          106.80159284267692,
          20.816666666666666
        ]
      }
    },
    {
      "type": "Feature",
      "properties": {
        "name": "Cảng Tổng hợp Đình Vũ",
        "khu_vuc": "Khu bến Đình Vũ",
        "phan_loai": "Bến cảng hiện hữu",
        "nguon": "09 QH tong the Dinh Vu-Model.pdf - QD 756/QD-BXD, Cuc Hang hai Viet Nam, 02/2025",
        "phuong_phap": "Da dich chuyen toan bo khu (tinh + huong khong doi) de khop diem neo moi: Cang Nam Hai Dinh Vu, toa do cong bo N20 49', E106 47' (lam tron den phut, nguon vpa.org.vn). Sai lech ban dau ~1.3km, gan voi sai so lam tron cua nguon (+-930m) nen muc do cai thien it hon so voi Lach Huyen. CANH BAO: chua xac dinh duoc goc xoay/ty le that cua ban ve nay (thieu diem moc thu 2).",
        "do_chinh_xac": "TRUNG BINH (vi tri, da xac thuc gan dung qua Cang Nam Hai Dinh Vu) / THAP (goc xoay chi tiet)."
      },
      "geometry": {
        "type": "Point",
        "coordinates": [
          106.79196145313306,
          20.810245729644492
        ]
      }
    },
    {
      "type": "Feature",
      "properties": {
        "name": "Cảng Nhà máy DAP Hải Phòng",
        "khu_vuc": "Khu bến Đình Vũ",
        "phan_loai": "Bến cảng hiện hữu",
        "nguon": "09 QH tong the Dinh Vu-Model.pdf - QD 756/QD-BXD, Cuc Hang hai Viet Nam, 02/2025",
        "phuong_phap": "Da dich chuyen toan bo khu (tinh + huong khong doi) de khop diem neo moi: Cang Nam Hai Dinh Vu, toa do cong bo N20 49', E106 47' (lam tron den phut, nguon vpa.org.vn). Sai lech ban dau ~1.3km, gan voi sai so lam tron cua nguon (+-930m) nen muc do cai thien it hon so voi Lach Huyen. CANH BAO: chua xac dinh duoc goc xoay/ty le that cua ban ve nay (thieu diem moc thu 2).",
        "do_chinh_xac": "TRUNG BINH (vi tri, da xac thuc gan dung qua Cang Nam Hai Dinh Vu) / THAP (goc xoay chi tiet)."
      },
      "geometry": {
        "type": "Point",
        "coordinates": [
          106.7877477202076,
          20.806657558955628
        ]
      }
    },
    {
      "type": "Feature",
      "properties": {
        "name": "Cảng Nam Đình Vũ",
        "khu_vuc": "Khu bến Đình Vũ",
        "phan_loai": "Bến cảng hiện hữu",
        "nguon": "09 QH tong the Dinh Vu-Model.pdf - QD 756/QD-BXD, Cuc Hang hai Viet Nam, 02/2025",
        "phuong_phap": "Da dich chuyen toan bo khu (tinh + huong khong doi) de khop diem neo moi: Cang Nam Hai Dinh Vu, toa do cong bo N20 49', E106 47' (lam tron den phut, nguon vpa.org.vn). Sai lech ban dau ~1.3km, gan voi sai so lam tron cua nguon (+-930m) nen muc do cai thien it hon so voi Lach Huyen. CANH BAO: chua xac dinh duoc goc xoay/ty le that cua ban ve nay (thieu diem moc thu 2).",
        "do_chinh_xac": "TRUNG BINH (vi tri, da xac thuc gan dung qua Cang Nam Hai Dinh Vu) / THAP (goc xoay chi tiet)."
      },
      "geometry": {
        "type": "Point",
        "coordinates": [
          106.81102357827196,
          20.815533560133343
        ]
      }
    },
    {
      "type": "Feature",
      "properties": {
        "name": "Cảng Xăng dầu/LNG Nam Đình Vũ",
        "khu_vuc": "Khu bến Đình Vũ",
        "phan_loai": "Bến cảng quy hoạch đến năm 2030",
        "nguon": "09 QH tong the Dinh Vu-Model.pdf - QD 756/QD-BXD, Cuc Hang hai Viet Nam, 02/2025",
        "phuong_phap": "Da dich chuyen toan bo khu (tinh + huong khong doi) de khop diem neo moi: Cang Nam Hai Dinh Vu, toa do cong bo N20 49', E106 47' (lam tron den phut, nguon vpa.org.vn). Sai lech ban dau ~1.3km, gan voi sai so lam tron cua nguon (+-930m) nen muc do cai thien it hon so voi Lach Huyen. CANH BAO: chua xac dinh duoc goc xoay/ty le that cua ban ve nay (thieu diem moc thu 2).",
        "do_chinh_xac": "TRUNG BINH (vi tri, da xac thuc gan dung qua Cang Nam Hai Dinh Vu) / THAP (goc xoay chi tiet)."
      },
      "geometry": {
        "type": "Point",
        "coordinates": [
          106.81904973622518,
          20.808734920933393
        ]
      }
    },
    {
      "type": "Feature",
      "properties": {
        "name": "Ga đường sắt Nam Đình Vũ",
        "khu_vuc": "Khu bến Đình Vũ",
        "phan_loai": "Hạ tầng liên quan (ga đường sắt)",
        "nguon": "09 QH tong the Dinh Vu-Model.pdf - QD 756/QD-BXD, Cuc Hang hai Viet Nam, 02/2025",
        "phuong_phap": "Da dich chuyen toan bo khu (tinh + huong khong doi) de khop diem neo moi: Cang Nam Hai Dinh Vu, toa do cong bo N20 49', E106 47' (lam tron den phut, nguon vpa.org.vn). Sai lech ban dau ~1.3km, gan voi sai so lam tron cua nguon (+-930m) nen muc do cai thien it hon so voi Lach Huyen. CANH BAO: chua xac dinh duoc goc xoay/ty le that cua ban ve nay (thieu diem moc thu 2).",
        "do_chinh_xac": "TRUNG BINH (vi tri, da xac thuc gan dung qua Cang Nam Hai Dinh Vu) / THAP (goc xoay chi tiet)."
      },
      "geometry": {
        "type": "Point",
        "coordinates": [
          106.758853551576,
          20.80042547302234
        ]
      }
    },
    {
      "type": "Feature",
      "properties": {
        "name": "Bến cảng Việt Nhật",
        "khu_vuc": "Khu bến Sông Cấm",
        "nguon": "13. Di doi Song Cam.pdf - QD 756/QD-BXD, Cuc Hang hai Viet Nam, 02/2025",
        "phuong_phap": "Vi tri xac dinh bang phep fit 2 diem doc lap (Cau Bach Dang + Cang Chua Ve, ca hai xac thuc qua OpenStreetMap) sau khi phat hien ban ve khong hoan toan huong Bac len tren nhu gia dinh ban dau.",
        "do_chinh_xac": "TRUNG BINH - da xac thuc cheo qua 2 diem moc doc lap, nhung van chi la uoc luong (cac ben nam sat nhau trong ban ve co the con sai lech vai tram met do mat do nhan day dac).",
        "trong_bang_chi_tieu": "Khong (ben hien huu, chi mang tinh boi canh)"
      },
      "geometry": {
        "type": "Point",
        "coordinates": [
          106.68464091755244,
          20.91086722465399
        ]
      }
    },
    {
      "type": "Feature",
      "properties": {
        "name": "Bến cảng Vật Cách",
        "khu_vuc": "Khu bến Sông Cấm",
        "nguon": "13. Di doi Song Cam.pdf - QD 756/QD-BXD, Cuc Hang hai Viet Nam, 02/2025",
        "phuong_phap": "Vi tri xac dinh bang phep fit 2 diem doc lap (Cau Bach Dang + Cang Chua Ve, ca hai xac thuc qua OpenStreetMap) sau khi phat hien ban ve khong hoan toan huong Bac len tren nhu gia dinh ban dau.",
        "do_chinh_xac": "TRUNG BINH - da xac thuc cheo qua 2 diem moc doc lap, nhung van chi la uoc luong (cac ben nam sat nhau trong ban ve co the con sai lech vai tram met do mat do nhan day dac).",
        "trong_bang_chi_tieu": "Khong (ben hien huu, chi mang tinh boi canh)"
      },
      "geometry": {
        "type": "Point",
        "coordinates": [
          106.67375645814637,
          20.904938244058265
        ]
      }
    },
    {
      "type": "Feature",
      "properties": {
        "name": "Bến cảng Tiến Mạnh",
        "khu_vuc": "Khu bến Sông Cấm",
        "nguon": "13. Di doi Song Cam.pdf - QD 756/QD-BXD, Cuc Hang hai Viet Nam, 02/2025",
        "phuong_phap": "Vi tri xac dinh bang phep fit 2 diem doc lap (Cau Bach Dang + Cang Chua Ve, ca hai xac thuc qua OpenStreetMap) sau khi phat hien ban ve khong hoan toan huong Bac len tren nhu gia dinh ban dau.",
        "do_chinh_xac": "TRUNG BINH - da xac thuc cheo qua 2 diem moc doc lap, nhung van chi la uoc luong (cac ben nam sat nhau trong ban ve co the con sai lech vai tram met do mat do nhan day dac).",
        "trong_bang_chi_tieu": "Khong (ben hien huu, chi mang tinh boi canh)"
      },
      "geometry": {
        "type": "Point",
        "coordinates": [
          106.668577460936,
          20.904458869777102
        ]
      }
    },
    {
      "type": "Feature",
      "properties": {
        "name": "Bến cảng Hóa dầu Mipec",
        "khu_vuc": "Khu bến Sông Cấm",
        "nguon": "13. Di doi Song Cam.pdf - QD 756/QD-BXD, Cuc Hang hai Viet Nam, 02/2025",
        "phuong_phap": "Vi tri xac dinh bang phep fit 2 diem doc lap (Cau Bach Dang + Cang Chua Ve, ca hai xac thuc qua OpenStreetMap) sau khi phat hien ban ve khong hoan toan huong Bac len tren nhu gia dinh ban dau.",
        "do_chinh_xac": "TRUNG BINH - da xac thuc cheo qua 2 diem moc doc lap, nhung van chi la uoc luong (cac ben nam sat nhau trong ban ve co the con sai lech vai tram met do mat do nhan day dac).",
        "trong_bang_chi_tieu": "Khong (ben hien huu, chi mang tinh boi canh)"
      },
      "geometry": {
        "type": "Point",
        "coordinates": [
          106.68205881387223,
          20.900461659467172
        ]
      }
    },
    {
      "type": "Feature",
      "properties": {
        "name": "Bến cảng Gas Thăng Long",
        "khu_vuc": "Khu bến Sông Cấm",
        "nguon": "13. Di doi Song Cam.pdf - QD 756/QD-BXD, Cuc Hang hai Viet Nam, 02/2025",
        "phuong_phap": "Vi tri xac dinh bang phep fit 2 diem doc lap (Cau Bach Dang + Cang Chua Ve, ca hai xac thuc qua OpenStreetMap) sau khi phat hien ban ve khong hoan toan huong Bac len tren nhu gia dinh ban dau.",
        "do_chinh_xac": "TRUNG BINH - da xac thuc cheo qua 2 diem moc doc lap, nhung van chi la uoc luong (cac ben nam sat nhau trong ban ve co the con sai lech vai tram met do mat do nhan day dac).",
        "trong_bang_chi_tieu": "Khong (ben hien huu, chi mang tinh boi canh)"
      },
      "geometry": {
        "type": "Point",
        "coordinates": [
          106.679893673228,
          20.90005689839995
        ]
      }
    },
    {
      "type": "Feature",
      "properties": {
        "name": "Bến cảng Lilama Hải Phòng",
        "khu_vuc": "Khu bến Sông Cấm",
        "nguon": "13. Di doi Song Cam.pdf - QD 756/QD-BXD, Cuc Hang hai Viet Nam, 02/2025",
        "phuong_phap": "Vi tri xac dinh bang phep fit 2 diem doc lap (Cau Bach Dang + Cang Chua Ve, ca hai xac thuc qua OpenStreetMap) sau khi phat hien ban ve khong hoan toan huong Bac len tren nhu gia dinh ban dau.",
        "do_chinh_xac": "TRUNG BINH - da xac thuc cheo qua 2 diem moc doc lap, nhung van chi la uoc luong (cac ben nam sat nhau trong ban ve co the con sai lech vai tram met do mat do nhan day dac).",
        "trong_bang_chi_tieu": "Khong (ben hien huu, chi mang tinh boi canh)"
      },
      "geometry": {
        "type": "Point",
        "coordinates": [
          106.67942596442755,
          20.898991841626152
        ]
      }
    },
    {
      "type": "Feature",
      "properties": {
        "name": "Bến cảng Tự Long",
        "khu_vuc": "Khu bến Sông Cấm",
        "nguon": "13. Di doi Song Cam.pdf - QD 756/QD-BXD, Cuc Hang hai Viet Nam, 02/2025",
        "phuong_phap": "Vi tri xac dinh bang phep fit 2 diem doc lap (Cau Bach Dang + Cang Chua Ve, ca hai xac thuc qua OpenStreetMap) sau khi phat hien ban ve khong hoan toan huong Bac len tren nhu gia dinh ban dau.",
        "do_chinh_xac": "TRUNG BINH - da xac thuc cheo qua 2 diem moc doc lap, nhung van chi la uoc luong (cac ben nam sat nhau trong ban ve co the con sai lech vai tram met do mat do nhan day dac).",
        "trong_bang_chi_tieu": "Khong (ben hien huu, chi mang tinh boi canh)"
      },
      "geometry": {
        "type": "Point",
        "coordinates": [
          106.69478955270071,
          20.89550944166788
        ]
      }
    },
    {
      "type": "Feature",
      "properties": {
        "name": "Bến cảng Dầu Thượng Lý",
        "khu_vuc": "Khu bến Sông Cấm",
        "nguon": "13. Di doi Song Cam.pdf - QD 756/QD-BXD, Cuc Hang hai Viet Nam, 02/2025",
        "phuong_phap": "Vi tri xac dinh bang phep fit 2 diem doc lap (Cau Bach Dang + Cang Chua Ve, ca hai xac thuc qua OpenStreetMap) sau khi phat hien ban ve khong hoan toan huong Bac len tren nhu gia dinh ban dau.",
        "do_chinh_xac": "TRUNG BINH - da xac thuc cheo qua 2 diem moc doc lap, nhung van chi la uoc luong (cac ben nam sat nhau trong ban ve co the con sai lech vai tram met do mat do nhan day dac).",
        "trong_bang_chi_tieu": "Khong (ben hien huu, chi mang tinh boi canh)"
      },
      "geometry": {
        "type": "Point",
        "coordinates": [
          106.69686799166598,
          20.893453941334222
        ]
      }
    },
    {
      "type": "Feature",
      "properties": {
        "name": "Bến cảng Nam Ninh",
        "khu_vuc": "Khu bến Sông Cấm",
        "nguon": "13. Di doi Song Cam.pdf - QD 756/QD-BXD, Cuc Hang hai Viet Nam, 02/2025",
        "phuong_phap": "Vi tri xac dinh bang phep fit 2 diem doc lap (Cau Bach Dang + Cang Chua Ve, ca hai xac thuc qua OpenStreetMap) sau khi phat hien ban ve khong hoan toan huong Bac len tren nhu gia dinh ban dau.",
        "do_chinh_xac": "TRUNG BINH - da xac thuc cheo qua 2 diem moc doc lap, nhung van chi la uoc luong (cac ben nam sat nhau trong ban ve co the con sai lech vai tram met do mat do nhan day dac).",
        "trong_bang_chi_tieu": "Khong (ben hien huu, chi mang tinh boi canh)"
      },
      "geometry": {
        "type": "Point",
        "coordinates": [
          106.66369276916812,
          20.900124029467975
        ]
      }
    },
    {
      "type": "Feature",
      "properties": {
        "name": "Bến cảng Quỳnh Cư",
        "khu_vuc": "Khu bến Sông Cấm",
        "nguon": "13. Di doi Song Cam.pdf - QD 756/QD-BXD, Cuc Hang hai Viet Nam, 02/2025",
        "phuong_phap": "Vi tri xac dinh bang phep fit 2 diem doc lap (Cau Bach Dang + Cang Chua Ve, ca hai xac thuc qua OpenStreetMap) sau khi phat hien ban ve khong hoan toan huong Bac len tren nhu gia dinh ban dau.",
        "do_chinh_xac": "TRUNG BINH - da xac thuc cheo qua 2 diem moc doc lap, nhung van chi la uoc luong (cac ben nam sat nhau trong ban ve co the con sai lech vai tram met do mat do nhan day dac).",
        "trong_bang_chi_tieu": "Khong (ben hien huu, chi mang tinh boi canh)"
      },
      "geometry": {
        "type": "Point",
        "coordinates": [
          106.66445478341105,
          20.897333620213807
        ]
      }
    },
    {
      "type": "Feature",
      "properties": {
        "name": "Bến cảng Hùng Vương",
        "khu_vuc": "Khu bến Sông Cấm",
        "nguon": "13. Di doi Song Cam.pdf - QD 756/QD-BXD, Cuc Hang hai Viet Nam, 02/2025",
        "phuong_phap": "Vi tri xac dinh bang phep fit 2 diem doc lap (Cau Bach Dang + Cang Chua Ve, ca hai xac thuc qua OpenStreetMap) sau khi phat hien ban ve khong hoan toan huong Bac len tren nhu gia dinh ban dau.",
        "do_chinh_xac": "TRUNG BINH - da xac thuc cheo qua 2 diem moc doc lap, nhung van chi la uoc luong (cac ben nam sat nhau trong ban ve co the con sai lech vai tram met do mat do nhan day dac).",
        "trong_bang_chi_tieu": "Khong (ben hien huu, chi mang tinh boi canh)"
      },
      "geometry": {
        "type": "Point",
        "coordinates": [
          106.66738193829819,
          20.894947972026866
        ]
      }
    },
    {
      "type": "Feature",
      "properties": {
        "name": "Bến cảng Đóng tàu Bạch Đằng",
        "khu_vuc": "Khu bến Sông Cấm",
        "nguon": "13. Di doi Song Cam.pdf - QD 756/QD-BXD, Cuc Hang hai Viet Nam, 02/2025",
        "phuong_phap": "Vi tri xac dinh bang phep fit 2 diem doc lap (Cau Bach Dang + Cang Chua Ve, ca hai xac thuc qua OpenStreetMap) sau khi phat hien ban ve khong hoan toan huong Bac len tren nhu gia dinh ban dau.",
        "do_chinh_xac": "TRUNG BINH - da xac thuc cheo qua 2 diem moc doc lap, nhung van chi la uoc luong (cac ben nam sat nhau trong ban ve co the con sai lech vai tram met do mat do nhan day dac).",
        "trong_bang_chi_tieu": "Khong (ben hien huu, chi mang tinh boi canh)"
      },
      "geometry": {
        "type": "Point",
        "coordinates": [
          106.68678261210508,
          20.88029330423078
        ]
      }
    },
    {
      "type": "Feature",
      "properties": {
        "name": "Bến cảng Hoàng Diệu",
        "khu_vuc": "Khu bến Sông Cấm",
        "nguon": "13. Di doi Song Cam.pdf - QD 756/QD-BXD, Cuc Hang hai Viet Nam, 02/2025",
        "phuong_phap": "Vi tri xac dinh bang phep fit 2 diem doc lap (Cau Bach Dang + Cang Chua Ve, ca hai xac thuc qua OpenStreetMap) sau khi phat hien ban ve khong hoan toan huong Bac len tren nhu gia dinh ban dau.",
        "do_chinh_xac": "TRUNG BINH - da xac thuc cheo qua 2 diem moc doc lap, nhung van chi la uoc luong (cac ben nam sat nhau trong ban ve co the con sai lech vai tram met do mat do nhan day dac).",
        "trong_bang_chi_tieu": "Khong (ben hien huu, chi mang tinh boi canh)"
      },
      "geometry": {
        "type": "Point",
        "coordinates": [
          106.70536538068085,
          20.871318873406306
        ]
      }
    },
    {
      "type": "Feature",
      "properties": {
        "name": "Bến cảng Gas Đài Hải",
        "khu_vuc": "Khu bến Sông Cấm",
        "nguon": "13. Di doi Song Cam.pdf - QD 756/QD-BXD, Cuc Hang hai Viet Nam, 02/2025",
        "phuong_phap": "Vi tri xac dinh bang phep fit 2 diem doc lap (Cau Bach Dang + Cang Chua Ve, ca hai xac thuc qua OpenStreetMap) sau khi phat hien ban ve khong hoan toan huong Bac len tren nhu gia dinh ban dau.",
        "do_chinh_xac": "TRUNG BINH - da xac thuc cheo qua 2 diem moc doc lap, nhung van chi la uoc luong (cac ben nam sat nhau trong ban ve co the con sai lech vai tram met do mat do nhan day dac).",
        "trong_bang_chi_tieu": "Khong (ben hien huu, chi mang tinh boi canh)"
      },
      "geometry": {
        "type": "Point",
        "coordinates": [
          106.7197103000405,
          20.877585187802367
        ]
      }
    },
    {
      "type": "Feature",
      "properties": {
        "name": "Bến cảng Cá Hạ Long",
        "khu_vuc": "Khu bến Sông Cấm",
        "nguon": "13. Di doi Song Cam.pdf - QD 756/QD-BXD, Cuc Hang hai Viet Nam, 02/2025",
        "phuong_phap": "Vi tri xac dinh bang phep fit 2 diem doc lap (Cau Bach Dang + Cang Chua Ve, ca hai xac thuc qua OpenStreetMap) sau khi phat hien ban ve khong hoan toan huong Bac len tren nhu gia dinh ban dau.",
        "do_chinh_xac": "TRUNG BINH - da xac thuc cheo qua 2 diem moc doc lap, nhung van chi la uoc luong (cac ben nam sat nhau trong ban ve co the con sai lech vai tram met do mat do nhan day dac).",
        "trong_bang_chi_tieu": "Khong (ben hien huu, chi mang tinh boi canh)"
      },
      "geometry": {
        "type": "Point",
        "coordinates": [
          106.71528191693787,
          20.878060821010575
        ]
      }
    },
    {
      "type": "Feature",
      "properties": {
        "name": "Bến cảng Cửa Cấm",
        "khu_vuc": "Khu bến Sông Cấm",
        "nguon": "13. Di doi Song Cam.pdf - QD 756/QD-BXD, Cuc Hang hai Viet Nam, 02/2025",
        "phuong_phap": "Vi tri xac dinh bang phep fit 2 diem doc lap (Cau Bach Dang + Cang Chua Ve, ca hai xac thuc qua OpenStreetMap) sau khi phat hien ban ve khong hoan toan huong Bac len tren nhu gia dinh ban dau.",
        "do_chinh_xac": "TRUNG BINH - da xac thuc cheo qua 2 diem moc doc lap, nhung van chi la uoc luong (cac ben nam sat nhau trong ban ve co the con sai lech vai tram met do mat do nhan day dac).",
        "trong_bang_chi_tieu": "Co",
        "so_cau_chieu_dai": "3/272÷3/272",
        "co_tau_tan": 5000,
        "dien_tich_vung_dat_ha": 4,
        "dien_tich_vung_nuoc_ha": 3
      },
      "geometry": {
        "type": "Point",
        "coordinates": [
          106.7334346274851,
          20.871124172484514
        ]
      }
    },
    {
      "type": "Feature",
      "properties": {
        "name": "Bến cảng Thủy sản II",
        "khu_vuc": "Khu bến Sông Cấm",
        "nguon": "13. Di doi Song Cam.pdf - QD 756/QD-BXD, Cuc Hang hai Viet Nam, 02/2025",
        "phuong_phap": "Vi tri xac dinh bang phep fit 2 diem doc lap (Cau Bach Dang + Cang Chua Ve, ca hai xac thuc qua OpenStreetMap) sau khi phat hien ban ve khong hoan toan huong Bac len tren nhu gia dinh ban dau.",
        "do_chinh_xac": "TRUNG BINH - da xac thuc cheo qua 2 diem moc doc lap, nhung van chi la uoc luong (cac ben nam sat nhau trong ban ve co the con sai lech vai tram met do mat do nhan day dac).",
        "trong_bang_chi_tieu": "Co",
        "so_cau_chieu_dai": "1/73÷1/73",
        "co_tau_tan": 3000,
        "ghi_chu": "Tạm dừng hoạt động"
      },
      "geometry": {
        "type": "Point",
        "coordinates": [
          106.73409853991384,
          20.869618918573
        ]
      }
    },
    {
      "type": "Feature",
      "properties": {
        "name": "Bến cảng Nam Hải",
        "khu_vuc": "Khu bến Sông Cấm",
        "nguon": "13. Di doi Song Cam.pdf - QD 756/QD-BXD, Cuc Hang hai Viet Nam, 02/2025",
        "phuong_phap": "Vi tri xac dinh bang phep fit 2 diem doc lap (Cau Bach Dang + Cang Chua Ve, ca hai xac thuc qua OpenStreetMap) sau khi phat hien ban ve khong hoan toan huong Bac len tren nhu gia dinh ban dau.",
        "do_chinh_xac": "TRUNG BINH - da xac thuc cheo qua 2 diem moc doc lap, nhung van chi la uoc luong (cac ben nam sat nhau trong ban ve co the con sai lech vai tram met do mat do nhan day dac).",
        "trong_bang_chi_tieu": "Co",
        "so_cau_chieu_dai": "1/144÷1/144",
        "co_tau_tan": 10000,
        "dien_tich_vung_dat_ha": 7,
        "dien_tich_vung_nuoc_ha": 1
      },
      "geometry": {
        "type": "Point",
        "coordinates": [
          106.73363083111342,
          20.868553861799203
        ]
      }
    },
    {
      "type": "Feature",
      "properties": {
        "name": "Bến cảng Đoạn Xá",
        "khu_vuc": "Khu bến Sông Cấm",
        "nguon": "13. Di doi Song Cam.pdf - QD 756/QD-BXD, Cuc Hang hai Viet Nam, 02/2025",
        "phuong_phap": "Vi tri xac dinh bang phep fit 2 diem doc lap (Cau Bach Dang + Cang Chua Ve, ca hai xac thuc qua OpenStreetMap) sau khi phat hien ban ve khong hoan toan huong Bac len tren nhu gia dinh ban dau.",
        "do_chinh_xac": "TRUNG BINH - da xac thuc cheo qua 2 diem moc doc lap, nhung van chi la uoc luong (cac ben nam sat nhau trong ban ve co the con sai lech vai tram met do mat do nhan day dac).",
        "trong_bang_chi_tieu": "Co",
        "so_cau_chieu_dai": "1/210÷1/210",
        "co_tau_tan": "10000 (giảm tải)",
        "dien_tich_vung_dat_ha": 10,
        "dien_tich_vung_nuoc_ha": 2
      },
      "geometry": {
        "type": "Point",
        "coordinates": [
          106.72870164849252,
          20.86336343246399
        ]
      }
    },
    {
      "type": "Feature",
      "properties": {
        "name": "Bến cảng Trasvina",
        "khu_vuc": "Khu bến Sông Cấm",
        "nguon": "13. Di doi Song Cam.pdf - QD 756/QD-BXD, Cuc Hang hai Viet Nam, 02/2025",
        "phuong_phap": "Vi tri xac dinh bang phep fit 2 diem doc lap (Cau Bach Dang + Cang Chua Ve, ca hai xac thuc qua OpenStreetMap) sau khi phat hien ban ve khong hoan toan huong Bac len tren nhu gia dinh ban dau.",
        "do_chinh_xac": "TRUNG BINH - da xac thuc cheo qua 2 diem moc doc lap, nhung van chi la uoc luong (cac ben nam sat nhau trong ban ve co the con sai lech vai tram met do mat do nhan day dac).",
        "trong_bang_chi_tieu": "Co",
        "so_cau_chieu_dai": "1/120÷1/120",
        "co_tau_tan": "≥10000",
        "dien_tich_vung_dat_ha": 4,
        "dien_tich_vung_nuoc_ha": 1
      },
      "geometry": {
        "type": "Point",
        "coordinates": [
          106.72945910268136,
          20.862071189907237
        ]
      }
    },
    {
      "type": "Feature",
      "properties": {
        "name": "Bến cảng Hải Đăng",
        "khu_vuc": "Khu bến Sông Cấm",
        "nguon": "13. Di doi Song Cam.pdf - QD 756/QD-BXD, Cuc Hang hai Viet Nam, 02/2025",
        "phuong_phap": "Vi tri xac dinh bang phep fit 2 diem doc lap (Cau Bach Dang + Cang Chua Ve, ca hai xac thuc qua OpenStreetMap) sau khi phat hien ban ve khong hoan toan huong Bac len tren nhu gia dinh ban dau.",
        "do_chinh_xac": "TRUNG BINH - da xac thuc cheo qua 2 diem moc doc lap, nhung van chi la uoc luong (cac ben nam sat nhau trong ban ve co the con sai lech vai tram met do mat do nhan day dac).",
        "trong_bang_chi_tieu": "Co",
        "so_cau_chieu_dai": "1/87÷1/87",
        "co_tau_tan": 3000,
        "ghi_chu": "Tạm dừng hoạt động"
      },
      "geometry": {
        "type": "Point",
        "coordinates": [
          106.729061550201,
          20.86116589164951
        ]
      }
    },
    {
      "type": "Feature",
      "properties": {
        "name": "Bến cảng Greenport",
        "khu_vuc": "Khu bến Sông Cấm",
        "nguon": "13. Di doi Song Cam.pdf - QD 756/QD-BXD, Cuc Hang hai Viet Nam, 02/2025",
        "phuong_phap": "Vi tri xac dinh bang phep fit 2 diem doc lap (Cau Bach Dang + Cang Chua Ve, ca hai xac thuc qua OpenStreetMap) sau khi phat hien ban ve khong hoan toan huong Bac len tren nhu gia dinh ban dau.",
        "do_chinh_xac": "TRUNG BINH - da xac thuc cheo qua 2 diem moc doc lap, nhung van chi la uoc luong (cac ben nam sat nhau trong ban ve co the con sai lech vai tram met do mat do nhan day dac).",
        "trong_bang_chi_tieu": "Co",
        "so_cau_chieu_dai": "2/304÷2/304",
        "co_tau_tan": "≥10000",
        "dien_tich_vung_dat_ha": 8,
        "dien_tich_vung_nuoc_ha": 2
      },
      "geometry": {
        "type": "Point",
        "coordinates": [
          106.72781528179873,
          20.86059074124507
        ]
      }
    },
    {
      "type": "Feature",
      "properties": {
        "name": "Bến cảng Chùa Vẽ",
        "khu_vuc": "Khu bến Sông Cấm",
        "nguon": "13. Di doi Song Cam.pdf - QD 756/QD-BXD, Cuc Hang hai Viet Nam, 02/2025",
        "phuong_phap": "Vi tri xac dinh bang phep fit 2 diem doc lap (Cau Bach Dang + Cang Chua Ve, ca hai xac thuc qua OpenStreetMap) sau khi phat hien ban ve khong hoan toan huong Bac len tren nhu gia dinh ban dau.",
        "do_chinh_xac": "TRUNG BINH - da xac thuc cheo qua 2 diem moc doc lap, nhung van chi la uoc luong (cac ben nam sat nhau trong ban ve co the con sai lech vai tram met do mat do nhan day dac).",
        "trong_bang_chi_tieu": "Co",
        "so_cau_chieu_dai": "5/848÷5/848",
        "co_tau_tan": "≥10000",
        "dien_tich_vung_dat_ha": 21,
        "dien_tich_vung_nuoc_ha": 7
      },
      "geometry": {
        "type": "Point",
        "coordinates": [
          106.72715820945108,
          20.85984874511046
        ]
      }
    },
    {
      "type": "Feature",
      "properties": {
        "name": "Bến cảng Total Gas",
        "khu_vuc": "Khu bến Sông Cấm",
        "nguon": "13. Di doi Song Cam.pdf - QD 756/QD-BXD, Cuc Hang hai Viet Nam, 02/2025",
        "phuong_phap": "Vi tri xac dinh bang phep fit 2 diem doc lap (Cau Bach Dang + Cang Chua Ve, ca hai xac thuc qua OpenStreetMap) sau khi phat hien ban ve khong hoan toan huong Bac len tren nhu gia dinh ban dau.",
        "do_chinh_xac": "TRUNG BINH - da xac thuc cheo qua 2 diem moc doc lap, nhung van chi la uoc luong (cac ben nam sat nhau trong ban ve co the con sai lech vai tram met do mat do nhan day dac).",
        "trong_bang_chi_tieu": "Co",
        "so_cau_chieu_dai": "1/90÷1/90",
        "co_tau_tan": 3000,
        "dien_tich_vung_dat_ha": 5,
        "dien_tich_vung_nuoc_ha": 2
      },
      "geometry": {
        "type": "Point",
        "coordinates": [
          106.7238146766976,
          20.859777675503572
        ]
      }
    },
    {
      "type": "Feature",
      "properties": {
        "name": "Bến cảng Đồng Hải",
        "khu_vuc": "Khu bến Sông Cấm",
        "nguon": "13. Di doi Song Cam.pdf - QD 756/QD-BXD, Cuc Hang hai Viet Nam, 02/2025",
        "phuong_phap": "Vi tri xac dinh bang phep fit 2 diem doc lap (Cau Bach Dang + Cang Chua Ve, ca hai xac thuc qua OpenStreetMap) sau khi phat hien ban ve khong hoan toan huong Bac len tren nhu gia dinh ban dau.",
        "do_chinh_xac": "TRUNG BINH - da xac thuc cheo qua 2 diem moc doc lap, nhung van chi la uoc luong (cac ben nam sat nhau trong ban ve co the con sai lech vai tram met do mat do nhan day dac).",
        "trong_bang_chi_tieu": "Co",
        "so_cau_chieu_dai": "1/120÷1/120",
        "co_tau_tan": 600,
        "dien_tich_vung_dat_ha": 7,
        "dien_tich_vung_nuoc_ha": 1
      },
      "geometry": {
        "type": "Point",
        "coordinates": [
          106.7256569812356,
          20.857938730131725
        ]
      }
    },
    {
      "type": "Feature",
      "properties": {
        "name": "Bến cảng 128",
        "khu_vuc": "Khu bến Sông Cấm",
        "nguon": "13. Di doi Song Cam.pdf - QD 756/QD-BXD, Cuc Hang hai Viet Nam, 02/2025",
        "phuong_phap": "Vi tri xac dinh bang phep fit 2 diem doc lap (Cau Bach Dang + Cang Chua Ve, ca hai xac thuc qua OpenStreetMap) sau khi phat hien ban ve khong hoan toan huong Bac len tren nhu gia dinh ban dau.",
        "do_chinh_xac": "TRUNG BINH - da xac thuc cheo qua 2 diem moc doc lap, nhung van chi la uoc luong (cac ben nam sat nhau trong ban ve co the con sai lech vai tram met do mat do nhan day dac).",
        "trong_bang_chi_tieu": "Co",
        "so_cau_chieu_dai": "3/422÷3/422",
        "co_tau_tan": "≥10000",
        "dien_tich_vung_dat_ha": 16,
        "dien_tich_vung_nuoc_ha": 3
      },
      "geometry": {
        "type": "Point",
        "coordinates": [
          106.72695686059902,
          20.856373136167424
        ]
      }
    },
    {
      "type": "Feature",
      "properties": {
        "name": "Bến cảng Dầu khí Hải Linh",
        "khu_vuc": "Khu bến Sông Cấm",
        "nguon": "13. Di doi Song Cam.pdf - QD 756/QD-BXD, Cuc Hang hai Viet Nam, 02/2025",
        "phuong_phap": "Vi tri xac dinh bang phep fit 2 diem doc lap (Cau Bach Dang + Cang Chua Ve, ca hai xac thuc qua OpenStreetMap) sau khi phat hien ban ve khong hoan toan huong Bac len tren nhu gia dinh ban dau.",
        "do_chinh_xac": "TRUNG BINH - da xac thuc cheo qua 2 diem moc doc lap, nhung van chi la uoc luong (cac ben nam sat nhau trong ban ve co the con sai lech vai tram met do mat do nhan day dac).",
        "trong_bang_chi_tieu": "Co",
        "so_cau_chieu_dai": "1/145÷1/145",
        "co_tau_tan": 8000,
        "dien_tich_vung_dat_ha": 6,
        "dien_tich_vung_nuoc_ha": 2
      },
      "geometry": {
        "type": "Point",
        "coordinates": [
          106.72766754390783,
          20.85497438793329
        ]
      }
    },
    {
      "type": "Feature",
      "properties": {
        "name": "Bến cảng Xăng dầu K99",
        "khu_vuc": "Khu bến Sông Cấm",
        "nguon": "13. Di doi Song Cam.pdf - QD 756/QD-BXD, Cuc Hang hai Viet Nam, 02/2025",
        "phuong_phap": "Vi tri xac dinh bang phep fit 2 diem doc lap (Cau Bach Dang + Cang Chua Ve, ca hai xac thuc qua OpenStreetMap) sau khi phat hien ban ve khong hoan toan huong Bac len tren nhu gia dinh ban dau.",
        "do_chinh_xac": "TRUNG BINH - da xac thuc cheo qua 2 diem moc doc lap, nhung van chi la uoc luong (cac ben nam sat nhau trong ban ve co the con sai lech vai tram met do mat do nhan day dac).",
        "trong_bang_chi_tieu": "Co",
        "so_cau_chieu_dai": "1/185÷1/185",
        "co_tau_tan": "≥10000",
        "dien_tich_vung_dat_ha": 4,
        "dien_tich_vung_nuoc_ha": 2
      },
      "geometry": {
        "type": "Point",
        "coordinates": [
          106.7284483835367,
          20.85373539821523
        ]
      }
    },
    {
      "type": "Feature",
      "properties": {
        "name": "Bến cảng Xăng dầu Petec",
        "khu_vuc": "Khu bến Sông Cấm",
        "nguon": "13. Di doi Song Cam.pdf - QD 756/QD-BXD, Cuc Hang hai Viet Nam, 02/2025",
        "phuong_phap": "Vi tri xac dinh bang phep fit 2 diem doc lap (Cau Bach Dang + Cang Chua Ve, ca hai xac thuc qua OpenStreetMap) sau khi phat hien ban ve khong hoan toan huong Bac len tren nhu gia dinh ban dau.",
        "do_chinh_xac": "TRUNG BINH - da xac thuc cheo qua 2 diem moc doc lap, nhung van chi la uoc luong (cac ben nam sat nhau trong ban ve co the con sai lech vai tram met do mat do nhan day dac).",
        "trong_bang_chi_tieu": "Co",
        "so_cau_chieu_dai": "1/104÷1/104",
        "co_tau_tan": 5000,
        "dien_tich_vung_dat_ha": 3,
        "dien_tich_vung_nuoc_ha": 2
      },
      "geometry": {
        "type": "Point",
        "coordinates": [
          106.72583435947797,
          20.85381699991031
        ]
      }
    },
    {
      "type": "Feature",
      "properties": {
        "name": "Bến cảng Hải An",
        "khu_vuc": "Khu bến Sông Cấm",
        "nguon": "13. Di doi Song Cam.pdf - QD 756/QD-BXD, Cuc Hang hai Viet Nam, 02/2025",
        "phuong_phap": "Vi tri xac dinh bang phep fit 2 diem doc lap (Cau Bach Dang + Cang Chua Ve, ca hai xac thuc qua OpenStreetMap) sau khi phat hien ban ve khong hoan toan huong Bac len tren nhu gia dinh ban dau.",
        "do_chinh_xac": "TRUNG BINH - da xac thuc cheo qua 2 diem moc doc lap, nhung van chi la uoc luong (cac ben nam sat nhau trong ban ve co the con sai lech vai tram met do mat do nhan day dac).",
        "trong_bang_chi_tieu": "Co",
        "so_cau_chieu_dai": "1/150÷1/150",
        "co_tau_tan": "≥10000",
        "dien_tich_vung_dat_ha": 15,
        "dien_tich_vung_nuoc_ha": 2
      },
      "geometry": {
        "type": "Point",
        "coordinates": [
          106.72548357787764,
          20.853018207329963
        ]
      }
    },
    {
      "type": "Feature",
      "properties": {
        "name": "Bến cảng Trang trí của Cty 189",
        "khu_vuc": "Khu bến Sông Cấm",
        "nguon": "13. Di doi Song Cam.pdf - QD 756/QD-BXD, Cuc Hang hai Viet Nam, 02/2025",
        "phuong_phap": "Vi tri xac dinh bang phep fit 2 diem doc lap (Cau Bach Dang + Cang Chua Ve, ca hai xac thuc qua OpenStreetMap) sau khi phat hien ban ve khong hoan toan huong Bac len tren nhu gia dinh ban dau.",
        "do_chinh_xac": "TRUNG BINH - da xac thuc cheo qua 2 diem moc doc lap, nhung van chi la uoc luong (cac ben nam sat nhau trong ban ve co the con sai lech vai tram met do mat do nhan day dac).",
        "trong_bang_chi_tieu": "Co",
        "so_cau_chieu_dai": "1/90÷1/90",
        "co_tau_tan": 10000
      },
      "geometry": {
        "type": "Point",
        "coordinates": [
          106.73730000451825,
          20.84673821217047
        ]
      }
    },
    {
      "type": "Feature",
      "properties": {
        "name": "Bến cảng Công ty TNHH MTV 189",
        "khu_vuc": "Khu bến Sông Cấm",
        "nguon": "13. Di doi Song Cam.pdf - QD 756/QD-BXD, Cuc Hang hai Viet Nam, 02/2025",
        "phuong_phap": "Vi tri xac dinh bang phep fit 2 diem doc lap (Cau Bach Dang + Cang Chua Ve, ca hai xac thuc qua OpenStreetMap) sau khi phat hien ban ve khong hoan toan huong Bac len tren nhu gia dinh ban dau.",
        "do_chinh_xac": "TRUNG BINH - da xac thuc cheo qua 2 diem moc doc lap, nhung van chi la uoc luong (cac ben nam sat nhau trong ban ve co the con sai lech vai tram met do mat do nhan day dac).",
        "trong_bang_chi_tieu": "Co",
        "so_cau_chieu_dai": "1/180÷1/180",
        "co_tau_tan": "≥10000",
        "dien_tich_vung_dat_ha": 15,
        "dien_tich_vung_nuoc_ha": 2
      },
      "geometry": {
        "type": "Point",
        "coordinates": [
          106.74604896363155,
          20.84252434816578
        ]
      }
    },
    {
      "type": "Feature",
      "properties": {
        "name": "Bến cảng Nhà máy đóng tàu Phà Rừng",
        "khu_vuc": "Khu bến Phà Rừng",
        "phan_loai": "Bến cảng hiện hữu",
        "nguon": "17 QH Pha Rung.pdf - QD 756/QD-BXD, 02/2025",
        "phuong_phap": "Vi tri xac dinh bang phep fit 2 diem doc lap (Cau Ben Rung + Nha may dong tau Nam Trieu, ca hai xac thuc qua OpenStreetMap) sau khi phat hien ban ve khong hoan toan huong Bac len tren nhu gia dinh ban dau.",
        "do_chinh_xac": "TRUNG BINH - da xac thuc cheo qua 2 diem moc doc lap, nhung van chi la uoc luong.",
        "so_cau_chieu_dai": "1/90÷1/90",
        "co_tau_tan": "≥10000"
      },
      "geometry": {
        "type": "Point",
        "coordinates": [
          106.7236137417619,
          20.96258784756268
        ]
      }
    },
    {
      "type": "Feature",
      "properties": {
        "name": "Bến cảng Caltex",
        "khu_vuc": "Khu bến Phà Rừng",
        "phan_loai": "Bến cảng hiện hữu",
        "nguon": "17 QH Pha Rung.pdf - QD 756/QD-BXD, 02/2025",
        "phuong_phap": "Vi tri xac dinh bang phep fit 2 diem doc lap (Cau Ben Rung + Nha may dong tau Nam Trieu, ca hai xac thuc qua OpenStreetMap) sau khi phat hien ban ve khong hoan toan huong Bac len tren nhu gia dinh ban dau.",
        "do_chinh_xac": "TRUNG BINH - da xac thuc cheo qua 2 diem moc doc lap, nhung van chi la uoc luong.",
        "so_cau_chieu_dai": "1/60÷1/60",
        "co_tau_tan": 4000,
        "ghi_chu": "Tạm dừng hoạt động"
      },
      "geometry": {
        "type": "Point",
        "coordinates": [
          106.73053421058037,
          20.953441706498243
        ]
      }
    },
    {
      "type": "Feature",
      "properties": {
        "name": "Bến cảng Nhà máy Nhiệt điện Hải Phòng",
        "khu_vuc": "Khu bến Phà Rừng",
        "phan_loai": "Bến cảng hiện hữu",
        "nguon": "17 QH Pha Rung.pdf - QD 756/QD-BXD, 02/2025",
        "phuong_phap": "Vi tri xac dinh bang phep fit 2 diem doc lap (Cau Ben Rung + Nha may dong tau Nam Trieu, ca hai xac thuc qua OpenStreetMap) sau khi phat hien ban ve khong hoan toan huong Bac len tren nhu gia dinh ban dau.",
        "do_chinh_xac": "TRUNG BINH - da xac thuc cheo qua 2 diem moc doc lap, nhung van chi la uoc luong.",
        "so_cau_chieu_dai": "2/527÷2/527",
        "dien_tich_vung_dat_ha": 55,
        "dien_tich_vung_nuoc_ha": 3
      },
      "geometry": {
        "type": "Point",
        "coordinates": [
          106.74737641570829,
          20.94999095497265
        ]
      }
    },
    {
      "type": "Feature",
      "properties": {
        "name": "Bến cảng Nhà máy đóng tàu Nam Triệu",
        "khu_vuc": "Khu bến Phà Rừng",
        "phan_loai": "Bến cảng hiện hữu",
        "nguon": "17 QH Pha Rung.pdf - QD 756/QD-BXD, 02/2025",
        "phuong_phap": "Vi tri xac dinh bang phep fit 2 diem doc lap (Cau Ben Rung + Nha may dong tau Nam Trieu, ca hai xac thuc qua OpenStreetMap) sau khi phat hien ban ve khong hoan toan huong Bac len tren nhu gia dinh ban dau.",
        "do_chinh_xac": "TRUNG BINH - da xac thuc cheo qua 2 diem moc doc lap, nhung van chi la uoc luong.",
        "so_cau_chieu_dai": "1/90÷1/90",
        "co_tau_tan": "≥10000"
      },
      "geometry": {
        "type": "Point",
        "coordinates": [
          106.7622059917479,
          20.930392081263147
        ]
      }
    },
    {
      "type": "Feature",
      "properties": {
        "name": "Bến cảng Nhà máy sửa chữa tàu biển - Cty CP Quốc tế Thiên Phú Thành",
        "khu_vuc": "Khu bến Phà Rừng",
        "phan_loai": "Bến cảng quy hoạch tầm nhìn đến năm 2050",
        "nguon": "17 QH Pha Rung.pdf - QD 756/QD-BXD, 02/2025",
        "phuong_phap": "Vi tri xac dinh bang phep fit 2 diem doc lap (Cau Ben Rung + Nha may dong tau Nam Trieu, ca hai xac thuc qua OpenStreetMap) sau khi phat hien ban ve khong hoan toan huong Bac len tren nhu gia dinh ban dau.",
        "do_chinh_xac": "TRUNG BINH - da xac thuc cheo qua 2 diem moc doc lap, nhung van chi la uoc luong.",
        "so_cau_chieu_dai": "1/120÷1/120",
        "co_tau_tan": 5000,
        "dien_tich_vung_dat_ha": 25,
        "dien_tich_vung_nuoc_ha": 1
      },
      "geometry": {
        "type": "Point",
        "coordinates": [
          106.75922555387854,
          20.90556583122566
        ]
      }
    },
    {
      "type": "Feature",
      "properties": {
        "name": "Bến du thuyền phục vụ du lịch",
        "khu_vuc": "Khu bến Nam Đồ Sơn",
        "phan_loai": "Hạ tầng liên quan",
        "nguon": "18 QH Nam Do Son - PA1.pdf - QD 756/QD-BXD, 02/2025",
        "phuong_phap": "Vi tri uoc tinh tu nhan ban ve (georeference cung phep bien doi da dung cho toan bo Khu bến Nam Đồ Sơn).",
        "do_chinh_xac": "THAP - chi la diem minh hoa vi tri tuong doi, KHONG phai toa do do dac."
      },
      "geometry": {
        "type": "Point",
        "coordinates": [
          106.78772680206608,
          20.675400313507645
        ]
      }
    },
    {
      "type": "Feature",
      "properties": {
        "name": "Khu logistics sau cảng",
        "khu_vuc": "Khu bến Nam Đồ Sơn",
        "phan_loai": "Hạ tầng liên quan",
        "nguon": "18 QH Nam Do Son - PA1.pdf - QD 756/QD-BXD, 02/2025",
        "phuong_phap": "Vi tri uoc tinh tu nhan ban ve (georeference cung phep bien doi da dung cho toan bo Khu bến Nam Đồ Sơn).",
        "do_chinh_xac": "THAP - chi la diem minh hoa vi tri tuong doi, KHONG phai toa do do dac."
      },
      "geometry": {
        "type": "Point",
        "coordinates": [
          106.78537852616782,
          20.670089904126318
        ]
      }
    },
    {
      "type": "Feature",
      "properties": {
        "name": "Ga đường sắt (Nam Đồ Sơn)",
        "khu_vuc": "Khu bến Nam Đồ Sơn",
        "phan_loai": "Hạ tầng liên quan",
        "nguon": "18 QH Nam Do Son - PA1.pdf - QD 756/QD-BXD, 02/2025",
        "phuong_phap": "Vi tri uoc tinh tu nhan ban ve (georeference cung phep bien doi da dung cho toan bo Khu bến Nam Đồ Sơn).",
        "do_chinh_xac": "THAP - chi la diem minh hoa vi tri tuong doi, KHONG phai toa do do dac."
      },
      "geometry": {
        "type": "Point",
        "coordinates": [
          106.78412611235541,
          20.670237415498022
        ]
      }
    },
    {
      "type": "Feature",
      "properties": {
        "name": "Bến cảng Văn Úc 1",
        "khu_vuc": "Khu bến Văn Úc",
        "phan_loai": "Bến cảng quy hoạch đến năm 2030",
        "nguon": "20 QH tong the Van Uc.pdf - QD 756/QD-BXD, 02/2025",
        "phuong_phap": "Vi tri uoc tinh tu nhan ban ve (georeference cung phep bien doi da dung cho toan bo Khu bến Văn Úc).",
        "do_chinh_xac": "THAP - chi la diem minh hoa vi tri tuong doi, KHONG phai toa do do dac."
      },
      "geometry": {
        "type": "Point",
        "coordinates": [
          106.60427730617442,
          20.729534212728296
        ]
      }
    },
    {
      "type": "Feature",
      "properties": {
        "name": "Bến cảng Văn Úc 2",
        "khu_vuc": "Khu bến Văn Úc",
        "phan_loai": "Bến cảng quy hoạch đến năm 2030",
        "nguon": "20 QH tong the Van Uc.pdf - QD 756/QD-BXD, 02/2025",
        "phuong_phap": "Vi tri uoc tinh tu nhan ban ve (georeference cung phep bien doi da dung cho toan bo Khu bến Văn Úc).",
        "do_chinh_xac": "THAP - chi la diem minh hoa vi tri tuong doi, KHONG phai toa do do dac."
      },
      "geometry": {
        "type": "Point",
        "coordinates": [
          106.61619274206689,
          20.7255014240272
        ]
      }
    },
    {
      "type": "Feature",
      "properties": {
        "name": "Bến cảng Văn Úc 3",
        "khu_vuc": "Khu bến Văn Úc",
        "phan_loai": "Bến cảng quy hoạch tầm nhìn đến năm 2050",
        "nguon": "20 QH tong the Van Uc.pdf - QD 756/QD-BXD, 02/2025",
        "phuong_phap": "Vi tri uoc tinh tu nhan ban ve (georeference cung phep bien doi da dung cho toan bo Khu bến Văn Úc).",
        "do_chinh_xac": "THAP - chi la diem minh hoa vi tri tuong doi, KHONG phai toa do do dac."
      },
      "geometry": {
        "type": "Point",
        "coordinates": [
          106.6381618269936,
          20.723923376274595
        ]
      }
    },
    {
      "type": "Feature",
      "properties": {
        "name": "Bến cảng Văn Úc 4",
        "khu_vuc": "Khu bến Văn Úc",
        "phan_loai": "Bến cảng phát triển có điều kiện",
        "nguon": "20 QH tong the Van Uc.pdf - QD 756/QD-BXD, 02/2025",
        "phuong_phap": "Vi tri uoc tinh tu nhan ban ve (georeference cung phep bien doi da dung cho toan bo Khu bến Văn Úc).",
        "do_chinh_xac": "THAP - chi la diem minh hoa vi tri tuong doi, KHONG phai toa do do dac."
      },
      "geometry": {
        "type": "Point",
        "coordinates": [
          106.61637892075271,
          20.71673449206829
        ]
      }
    },
    {
      "type": "Feature",
      "properties": {
        "name": "Bến cảng Văn Úc 5",
        "khu_vuc": "Khu bến Văn Úc",
        "phan_loai": "Bến cảng phát triển có điều kiện",
        "nguon": "20 QH tong the Van Uc.pdf - QD 756/QD-BXD, 02/2025",
        "phuong_phap": "Vi tri uoc tinh tu nhan ban ve (georeference cung phep bien doi da dung cho toan bo Khu bến Văn Úc).",
        "do_chinh_xac": "THAP - chi la diem minh hoa vi tri tuong doi, KHONG phai toa do do dac."
      },
      "geometry": {
        "type": "Point",
        "coordinates": [
          106.6381618269936,
          20.713403057923905
        ]
      }
    }
  ]
}