{
  "type": "FeatureCollection",
  "features": [
    {
      "type": "Feature",
      "properties": {
        "name": "Khu neo Hòn Dấu",
        "Shape_Area": 21500000,
        "loai": "khu_neo",
        "quy_mo_ha": 2150,
        "co_tau_dwt": 50000,
        "nguon": "QĐ 1123/QĐ-CHHVN ngày 18/8/2021"
      },
      "geometry": {
        "type": "Polygon",
        "coordinates": [
          [
            [
              106.92409444444445,
              20.669647222222224
            ],
            [
              106.93230277777778,
              20.648977777777777
            ],
            [
              106.853225,
              20.621130555555556
            ],
            [
              106.84500555555555,
              20.641797222222223
            ],
            [
              106.92409444444445,
              20.669647222222224
            ]
          ]
        ]
      }
    },
    {
      "type": "Feature",
      "properties": {
        "name": "Khu neo Lạch Huyện",
        "Shape_Area": 6000000,
        "loai": "khu_neo",
        "quy_mo_ha": 600,
        "co_tau_dwt": 100000,
        "nguon": "QĐ 344/QĐ-CHHVN ngày 12/3/2019"
      },
      "geometry": {
        "type": "Polygon",
        "coordinates": [
          [
            [
              106.87263055555555,
              20.627972222222223
            ],
            [
              106.89132500000001,
              20.580938888888888
            ],
            [
              106.90101944444444,
              20.584352777777777
            ],
            [
              106.8823361111111,
              20.631386111111112
            ],
            [
              106.87263055555555,
              20.627972222222223
            ]
          ]
        ]
      }
    },
    {
      "type": "Feature",
      "properties": {
        "name": "Khu neo Lạch Huyện mở rộng",
        "Shape_Area": 12000000,
        "loai": "khu_neo",
        "quy_mo_ha": 1200,
        "co_tau_dwt": 100000,
        "nguon": "QĐ 534/QĐ-CHHVN ngày 29/4/2021"
      },
      "geometry": {
        "type": "Polygon",
        "coordinates": [
          [
            [
              106.87263055555555,
              20.627972222222223
            ],
            [
              106.89132500000001,
              20.580938888888888
            ],
            [
              106.87191944444444,
              20.5741
            ],
            [
              106.853225,
              20.621130555555556
            ],
            [
              106.87263055555555,
              20.627972222222223
            ]
          ]
        ]
      }
    },
    {
      "type": "Feature",
      "properties": {
        "name": "Khu neo dọc tuyến luồng Lạch Huyện 1",
        "loai": "khu_neo",
        "quy_mo_nhom_ha": 1035,
        "co_tau_dwt": 50000,
        "nguon": "QĐ 1952/QĐ-CHHVN ngày 06/12/2019 (tổng nhóm 3 khu — không có số liệu riêng)"
      },
      "geometry": {
        "type": "Polygon",
        "coordinates": [
          [
            [
              106.95706666666666,
              20.740808333333334
            ],
            [
              106.96094166666667,
              20.743472222222223
            ],
            [
              106.9762361111111,
              20.72378611111111
            ],
            [
              106.98398888888889,
              20.729116666666666
            ],
            [
              107.01400277777778,
              20.690469444444446
            ],
            [
              107.00237777777778,
              20.68247777777778
            ],
            [
              106.95706666666666,
              20.740808333333334
            ]
          ]
        ]
      }
    },
    {
      "type": "Feature",
      "properties": {
        "name": "Khu neo dọc tuyến luồng Lạch Huyện 2",
        "loai": "khu_neo",
        "quy_mo_nhom_ha": 1035,
        "co_tau_dwt": 3000,
        "nguon": "QĐ 1952/QĐ-CHHVN ngày 06/12/2019 (tổng nhóm 3 khu — không có số liệu riêng)"
      },
      "geometry": {
        "type": "Polygon",
        "coordinates": [
          [
            [
              106.91772222222222,
              20.793697222222224
            ],
            [
              106.92063888888889,
              20.79521666666667
            ],
            [
              106.92641388888889,
              20.785425
            ],
            [
              106.9235,
              20.78390277777778
            ],
            [
              106.91772222222222,
              20.793697222222224
            ]
          ]
        ]
      }
    },
    {
      "type": "Feature",
      "properties": {
        "name": "Khu neo Bến Gót",
        "loai": "khu_neo",
        "quy_mo_nhom_ha": 1035,
        "co_tau_dwt": 7000,
        "nguon": "QĐ 1952/QĐ-CHHVN ngày 06/12/2019 (tổng nhóm 3 khu — không có số liệu riêng)"
      },
      "geometry": {
        "type": "Polygon",
        "coordinates": [
          [
            [
              106.900525,
              20.819352777777777
            ],
            [
              106.90385555555557,
              20.821155555555556
            ],
            [
              106.91128333333334,
              20.80902222222222
            ],
            [
              106.90795277777778,
              20.807222222222222
            ],
            [
              106.900525,
              20.819352777777777
            ]
          ]
        ]
      }
    }
  ]
}