{
  "type": "FeatureCollection",
  "features": [
    {
      "type": "Feature",
      "properties": {
        "name": "Ranh giới vùng nước cảng biển Hải Phòng — phía biển (HP1→HP14)",
        "loai": "ranh_gioi_vung_nuoc",
        "nguon": "Thông tư 23/2019/TT-BGTVT ngày 21/6/2019 (trích dẫn trong Thuyết minh QHVDVN Hải Phòng, mục III.1.2)",
        "ghi_chu": "Đường gấp khúc thẳng nối HP1→HP2→…→HP14 theo đúng văn bản; đoạn tiếp theo (HP14→HP21→HP1, phía đất liền) chạy dọc bờ sông thật, không phải đường thẳng — xem lớp điểm mốc."
      },
      "geometry": {
        "type": "LineString",
        "coordinates": [
          [
            106.81305555555555,
            20.81972222222222
          ],
          [
            106.81305555555555,
            20.55
          ],
          [
            107.12027777777777,
            20.66638888888889
          ],
          [
            107.12027777777777,
            20.772499999999997
          ],
          [
            107.11611111111111,
            20.7825
          ],
          [
            107.10499999999999,
            20.7825
          ],
          [
            107.10499999999999,
            20.76638888888889
          ],
          [
            107.09055555555555,
            20.711111111111112
          ],
          [
            107.07027777777778,
            20.695555555555554
          ],
          [
            107.06333333333333,
            20.70777777777778
          ],
          [
            107.04472222222222,
            20.70638888888889
          ],
          [
            107.04722222222222,
            20.691388888888888
          ],
          [
            107.02166666666666,
            20.70638888888889
          ],
          [
            106.92166666666667,
            20.79388888888889
          ]
        ]
      }
    }
  ]
}