{
  "type": "FeatureCollection",
  "features": [
    {
      "type": "Feature",
      "properties": {
        "name": "Vùng đón trả hoa tiêu Lạch Huyện — Khu vực 1 (-16,0 mHĐ)",
        "ban_kinh_m": 2780,
        "loai": "vung_hoa_tieu",
        "do_sau_m": -16.0,
        "nguon": "TBHH 84/2021/TBHH-TCTBĐATHHMB ngày 22/4/2021 (cung AFB + dây cung AB)"
      },
      "geometry": {
        "type": "Polygon",
        "coordinates": [
          [
            [
              106.89186111111113,
              20.607444444444447
            ],
            [
              106.89045612758972,
              20.611982647523973
            ],
            [
              106.88998861548947,
              20.616687235872256
            ],
            [
              106.89047527822324,
              20.62139012254323
            ],
            [
              106.89189872815857,
              20.625923281388875
            ],
            [
              106.89420810784854,
              20.63012475034791
            ],
            [
              106.89732090708166,
              20.633844418074972
            ],
            [
              106.90112591083171,
              20.636949387163895
            ],
            [
              106.90548717278136,
              20.639328722346136
            ],
            [
              106.91024887245332,
              20.640897414019403
            ],
            [
              106.91524088241103,
              20.641599415496266
            ],
            [
              106.92028484662275,
              20.641409645457024
            ],
            [
              106.92520055281962,
              20.64033488406266
            ],
            [
              106.92981237117365,
              20.63841353071121
            ],
            [
              106.93395552925301,
              20.635714232092496
            ],
            [
              106.93748199906096,
              20.63233342955861
            ],
            [
              106.94026578582466,
              20.628391913438293
            ],
            [
              106.94220742957417,
              20.624030507403766
            ],
            [
              106.94323755867819,
              20.619405037080274
            ],
            [
              106.94331936837463,
              20.614680762661315
            ],
            [
              106.94244993574206,
              20.610026474442805
            ],
            [
              106.94066032413077,
              20.605608462232652
            ],
            [
              106.93801447332218,
              20.601584574098545
            ],
            [
              106.93460691506891,
              20.59809857672478
            ],
            [
              106.9305593956361,
              20.59527501887293
            ],
            [
              106.92601652601415,
              20.5932147814663
            ],
            [
              106.92114061521391,
              20.591991473285987
            ],
            [
              106.91610587124148,
              20.59164880105421
            ],
            [
              106.91109217694223,
              20.592199007867432
            ],
            [
              106.90627866309255,
              20.593622435771305
            ],
            [
              106.90183730836152,
              20.595868228105996
            ],
            [
              106.89792679480543,
              20.598856146528195
            ],
            [
              106.8946868384276,
              20.60247943779076
            ],
            [
              106.89223319736298,
              20.606608647854785
            ],
            [
              106.89065353603674,
              20.611096247062434
            ],
            [
              106.89000429306336,
              20.61578190112086
            ],
            [
              106.8903086647909,
              20.620498199574
            ],
            [
              106.8915557765348,
              20.62507663709364
            ],
            [
              106.89370107111196,
              20.629353633888435
            ],
            [
              106.89666790079319,
              20.633176380131818
            ],
            [
              106.90035026579618,
              20.636408295597413
            ],
            [
              106.9046166014777,
              20.63893390943839
            ],
            [
              106.90931447891462,
              20.640662985764592
            ],
            [
              106.91427605093038,
              20.641533747617505
            ],
            [
              106.91932404898918,
              20.641515084156026
            ],
            [
              106.92427811669968,
              20.640607662193908
            ],
            [
              106.92896125364221,
              20.63884390237566
            ],
            [
              106.93320613929295,
              20.636286820842017
            ],
            [
              106.93686111110195,
              20.633027777770316
            ],
            [
              106.89186111111111,
              20.607444444444447
            ]
          ]
        ]
      }
    },
    {
      "type": "Feature",
      "properties": {
        "name": "Vùng đón trả hoa tiêu Lạch Huyện — Khu vực 3 (-13,5 mHĐ)",
        "ban_kinh_m": 2773,
        "loai": "vung_hoa_tieu",
        "do_sau_m": -13.5,
        "nguon": "TBHH 84/2021/TBHH-TCTBĐATHHMB ngày 22/4/2021 (cung CED + dây cung CD)"
      },
      "geometry": {
        "type": "Polygon",
        "coordinates": [
          [
            [
              106.92883333333334,
              20.639
            ],
            [
              106.92779893229255,
              20.639470674543315
            ],
            [
              106.92674379276774,
              20.63989913750858
            ],
            [
              106.92566988037751,
              20.640284590712472
            ],
            [
              106.92457919571241,
              20.640626316094547
            ],
            [
              106.92347377060801,
              20.640923677054857
            ],
            [
              106.92235566435981,
              20.641176119639912
            ],
            [
              106.9212269598871,
              20.64138317357462
            ],
            [
              106.92008975985244,
              20.64154445313838
            ],
            [
              106.91894618274496,
              20.641659657883615
            ],
            [
              106.91779835893345,
              20.641728573195508
            ],
            [
              106.91664842669799,
              20.641751070691768
            ],
            [
              106.91549852824642,
              20.64172710846184
            ],
            [
              106.91435080572363,
              20.64165673114493
            ],
            [
              106.91320739722099,
              20.641540069846894
            ],
            [
              106.91207043279323,
              20.641377341895968
            ],
            [
              106.91094203049055,
              20.64116885043792
            ],
            [
              106.90982429241258,
              20.640914983871323
            ],
            [
              106.90871930079278,
              20.640616215123988
            ],
            [
              106.90762911411909,
              20.640273100771978
            ],
            [
              106.90655576329941,
              20.63988628000275
            ],
            [
              106.9055012478781,
              20.639456473424392
            ],
            [
              106.9044675323111,
              20.638984481723234
            ],
            [
              106.90345654230629,
              20.63847118417224
            ],
            [
              106.90247016123612,
              20.637917536992997
            ],
            [
              106.90151022662914,
              20.637324571574396
            ],
            [
              106.90057852674671,
              20.63669339255123
            ],
            [
              106.8996767972518,
              20.636025175746386
            ],
            [
              106.89880671797555,
              20.63532116598042
            ],
            [
              106.89796990978796,
              20.634582674752554
            ],
            [
              106.89716793157832,
              20.633811077797496
            ],
            [
              106.89640227735117,
              20.6330078125226
            ],
            [
              106.89567437344317,
              20.632174375330084
            ],
            [
              106.89498557586593,
              20.63131231882943
            ],
            [
              106.89433716777988,
              20.63042324894499
            ],
            [
              106.89373035710395,
              20.62950882192434
            ],
            [
              106.8931662742652,
              20.62857074125284
            ],
            [
              106.89264597009316,
              20.627610754480205
            ],
            [
              106.892170413862,
              20.626630649965033
            ],
            [
              106.89174049148508,
              20.625632253543213
            ],
            [
              106.89135700386441,
              20.62461742512665
            ],
            [
              106.89102066539881,
              20.62358805523838
            ],
            [
              106.8907321026529,
              20.622546061490727
            ],
            [
              106.89049185319001,
              20.62149338501301
            ],
            [
              106.89030036457066,
              20.62043198683539
            ],
            [
              106.89015799351887,
              20.61936384423566
            ],
            [
              106.8900650052575,
              20.618290947055833
            ],
            [
              106.89002157301435,
              20.617215293995173
            ],
            [
              106.89002777769932,
              20.61613888888691
            ],
            [
              106.92883333333334,
              20.639
            ]
          ]
        ]
      }
    }
  ]
}